location,latitude,longitude,address
"Abomey, Benin",7.1820012,1.993632,"Abomey, Zou, Bénin"
"Abuja, Nigeria",9.0643305,7.4892974,"Abuja, Municipal Area Council, Federal Capital Territory, 223140, Nigeria"
"Accra, Ghana",5.5571096,-0.2012376,"Accra, Korle-Klottey Municipal District, Greater Accra Region, Ghana"
"Addis Ababa, Ethiopia",9.0358287,38.7524127,"አዲስ አበባ / Addis Ababa, Arada, አዲስ አበባ / Addis Ababa, አዲስ አበባ, 3578, ኢትዮጵያ"
"Aden, Yemen",12.789585,45.028504,"مدينة عدن, محافظة عدن, اليمن"
"Agartala, India",23.8312377,91.2823821,"Agartala, Mohanpur, West Tripura, Tripura, 799001, India"
"Agra, India",27.1752554,78.0098161,"Agra, Uttar Pradesh, India"
"Ahilya Nagar, India",19.238013,76.2227154,"Ahilya Nagar, Majalgaon, Beed, Maharashtra, India"
"Ahmedabad, India",23.0215374,72.5800568,"Ahmedabad, Gujarat, 380001, India"
"Aizawl, India",23.7433532,92.7382756,"Aizawl, Tlangnuam, Aizawl, 796190, India"
"Akure, Nigeria",7.2525595,5.1932647,"Akure, Akure South, Ondo, 340021, Nigeria"
"Alameda, California",37.6090291,-121.899142,"Alameda County, California, United States"
"Albuquerque, New Mexico",35.0841034,-106.650985,"Albuquerque, Bernalillo County, New Mexico, United States"
"Alibag, India",18.6498427,72.8765469,"Alibag, Alibag Taluka, Raigad, Maharashtra, 402200, India"
"Amapá, Brasil",1.3545442,-51.9161977,"Amapá, Região Norte, Brasil"
"Ambikapur, India",23.1226343,83.1981886,"امبیکاپور, Ambikapur Tahsil, Surguja, Chhattisgarh, India"
"Amman, Jordan",31.9515694,35.9239625,"عمان, ناحية عمان, لواء قصبة عمان, عمان, 11118, الأردن"
"Amsterdam, Netherlands",52.3730796,4.8924534,"Amsterdam, Noord-Holland, Nederland"
"Anambra, Nigeria",6.2183136,6.9531842,"Anambra, Nigeria"
"Anand, India",22.5586555,72.9627227,"Anand, Anand City Taluka, Anand, Gujarat, 388001, India"
"Antananarivo, Madagascar",-18.9100122,47.5255809,"Antananarivo, Analamanga, Province d’Antananarivo, 101, Madagasikara / Madagascar"
"Arequipa, Peru",-16.3988667,-71.5369607,"Arequipa, Perú"
"Ariana, Tunisia",36.968573500000005,10.121985506329507,"ولاية أريانة, تونس"
"Arrah, India",25.560317,84.6632139,"Arrah, Bhojpur, Bihar, 802300, India"
"Arusha, Tanzania",-3.3696827,36.6880794,"Arusha, Arusha Municipal, Arusha, Northern Zone, 23103, Tanzania"
"Ashanti Region, Ghana",6.8003319,-1.5188142,"Ashanti Region, Ghana"
"Bagamoyo, Tanzania",-6.4422075,38.9062189,"Bagamoyo, Pwani, Coastal Zone, Tanzania"
"Bahia, Brazil",-12.285251,-41.9294776,"Bahia, Região Nordeste, Brasil"
Bahraich,27.734382250000003,81.47653998303304,"Bahraich, Uttar Pradesh, India"
"Bajo Baudó, Colombia",5.00181755,-77.15804531,"Bajo Baudó (Pizarro), Pacífico Sur, Chocó, RAP Pacífico, Colombia"
"Baku, Azerbaijan",40.3755885,49.8328009,"Bakı İnzibati Ərazisi, Azərbaycan"
"Balasore, India",21.5006421,86.919884,"Balasore, Station Road, Baleshwar, Baleshwar (M), Baleshwar, Odisha, 756001, India"
"Bamako, Mali",12.649319,-8.000337,"Bamako, Mali"
"Bamenda, Cameroon",5.9614117,10.1516505,"Communauté urbaine de Bamenda, Mezam, Northwest, Cameroun"
"Banaskantha, India",24.26939205,72.16202462,"Banaskantha, Gujarat, India"
"Banda Aceh, Indonesia",5.5528455,95.3192908,"Banda Aceh, Aceh, Sumatera, Indonesia"
"Bangkok, Thailand",13.7524938,100.4935089,"กรุงเทพมหานคร, ประเทศไทย"
"Barcelona, Spain",41.3828939,2.1774322,"Barcelona, Barcelonès, Barcelona, Catalunya, España"
"Basel, Switzerland",47.5581077,7.5878261,"Basel, Basel-Stadt, Schweiz/Suisse/Svizzera/Svizra"
"Bauchi, Nigeria",10.6228284,10.0287754,"Bauchi, Nigeria"
"Bedford, United Kingdom",52.1363806,-0.4675041,"Bedford, England, MK40 1SU, United Kingdom"
"Beijing, China",39.9042,116.4074,
"Belem, Brazil",-1.45056,-48.4682453,"Belém, Região Geográfica Imediata de Belém, Região Geográfica Intermediária de Belém, Pará, Região Norte, Brasil"
"Belo Horizonte, Brazil",-19.9227318,-43.9450948,"Belo Horizonte, Região Geográfica Imediata de Belo Horizonte, Região Metropolitana de Belo Horizonte, Região Geográfica Intermediária de Belo Horizonte, Minas Gerais, Região Sudeste, Brasil"
"Beloit, Wisconsin",42.5083272,-89.031784,"Beloit, Rock County, Wisconsin, United States"
"Bengaluru, India",12.98815675,77.62260004,"Bengaluru, Bangalore North, Bengaluru Urban, Karnataka, India"
"Benin City,  Nigeria",6.3330586,5.6221058,"Benin City, Oredo, Edo, 300241, Nigeria"
"Berekum, Ghana",7.450473,-2.5824981,"Berekum, Berekum East Municipal District, Bono Region, Ghana"
"Berlin, Germany",52.510885,13.3989367,"Berlin, Deutschland"
"Bharuch, India",21.7080427,72.9956936,"Bharuch, Bharuch Taluka, Bharuch, Gujarat, India"
"Bhopal, India",23.2584857,77.401989,"Bhopal, Huzur Tahsil, Bhopal, Madhya Pradesh, 462001, India"
"Bialystok, Poland",53.132398,23.1591679,"Białystok, województwo podlaskie, Polska"
"Bidar, India",18.02072965,77.24872035766641,"Bidar, Karnataka, India"
"Bikaner, India",28.0159286,73.3171367,"Bikaner, Bikaner Tehsil, Bikaner, Rajasthan, 334001, India"
"Bilaspur, India",22.1638486,82.13659231724193,"Bilaspur, Chhattisgarh, India"
"Biobío, Chile",-37.3391407,-72.4106825,"Región del Biobío, Chile"
"Blantyre, Malawi",-15.7862543,35.0035694,"Blantyre, Southern Region, Malawi"
"Boa Vista, Brazil",2.8208478,-60.6719582,"Boa Vista, Região Geográfica Imediata de Boa Vista, Região Geográfica Intermediária de Boa Vista, Roraima, Região Norte, Brasil"
"BOALI, CENTRAL AFRICAN REPUBLIC",4.8089514,18.1140203,"Boali, Ombella M'Poko, Ködörösêse tî Bêafrîka / République centrafricaine"
"Bogor, Indonesia",-6.5962986,106.7972421,"Bogor, Jawa Barat, Jawa, Indonesia"
"Bogotá, Colombia",4.711011,-74.0720917,"Bogotá, Bogotá, Distrito Capital, RAP (Especial) Central, Colombia"
"Bom Jesus, Brazil",-28.6692723,-50.4346894,"Bom Jesus, Região Geográfica Imediata de Vacaria, Região Geográfica Intermediária de Caxias do Sul, Rio Grande do Sul, Região Sul, Brasil"
"Bonn, Germany",50.7352621,7.1024635,"Bonn, Nordrhein-Westfalen, Deutschland"
"Boulder, Colorado",40.0149856,-105.270545,"Boulder, Boulder County, Colorado, United States"
"Brasília, Brazil",-10.3333333,-53.2,Brasil
"Brazzaville, Congo",-4.2694407,15.2712256,"Brazzaville (commune), Brazzaville (département), Congo"
"Brejo da Madre de Deus, Brazil",-8.1409718,-36.3712527,"Brejo da Madre de Deus, Região Geográfica Imediata de Caruaru, Região Geográfica Intermediária de Caruaru, Pernambuco, Região Nordeste, 55170-000, Brasil"
"Brisbane, Australia",-27.4689682,153.0234991,"City of Brisbane, Queensland, Australia"
"Brooklyn, New York",40.6526006,-73.9497211,"Brooklyn, Kings County, City of New York, New York, United States"
"Bujumbura, Burundi",-3.3638125,29.3675028,"Bujumbura, Bujumbura Mairie, Burundi"
"Bukavu, DRC",-2.5055839,28.8594885,"Bukavu, Sud-Kivu, République démocratique du Congo"
"Bulandshahr, India",28.3874073,77.9743805,"Bulandshahr, Uttar Pradesh, India"
"Bundibugyo, Uganda",0.6605936,30.043100774015073,"Bundibugyo, Western Region, Uganda"
"Cairo, Egypt",30.0443879,31.2357257,"القاهرة, مصر"
"Calabar, Nigeria",4.9795999,8.3373597,"Calabar, Calabar Municipal, Cross River, 540281, Nigeria"
"Canberra, Australia",-35.2975906,149.1012676,"Canberra, District of Canberra Central, Australian Capital Territory, 2601, Australia"
"Casablanca, Morocco",33.5945144,-7.6200284,"Casablanca ⵜⴰⴷⴷⴰⵔⵜ ⵜⵓⵎⵍⵉⵍⵜ الدار البيضاء, Pachalik de Casablanca باشوية الدار البيضاء, Préfecture de Casablanca عمالة الدار البيضاء, Casablanca-Settat ⵜⴰⴷⴷⴰⵔⵜ ⵜⵓⵎⵍⵉⵍⵜ-ⵙⵟⵟⴰⵜ الدار البيضاء-سطات, Maroc ⵍⵎⵖⵔⵉⴱ المغرب"
"Caucaia, Brazil",-3.7300563,-38.6593082,"Caucaia, Região Geográfica Imediata de Fortaleza, Região Geográfica Intermediária de Fortaleza, Ceará, Região Nordeste, Brasil"
"Cebu City, Philippines",10.2935639,123.9019209,"Cebu City, Central Visayas, Pilipinas"
"Chã Preta, Brazil",-9.255605,-36.298334,"Chã Preta, Região Geográfica Imediata de Atalaia, Região Geográfica Intermediária de Maceió, Alagoas, Região Nordeste, Brasil"
"Chandler, Arizona",33.3062031,-111.841185,"Chandler, Maricopa County, Arizona, United States"
"Chennai, India",13.0836939,80.270186,"Chennai, Tamil Nadu, 600001, India"
"Chicago, Illinois",41.8755616,-87.6244212,"Chicago, Cook County, Illinois, United States"
"Chilanga, Zambia",-15.5587509,28.2754586,"Chilanga, Chilanga District, Lusaka Province, Zambia"
"Chirundu, Zambia",-16.031977,28.85148,"Chirundu, Chirundu District, Southern Province, Zambia"
"Chittorgarh, India",24.7171578,74.47181293724019,"Chittorgarh, Rajasthan, India"
"Chiúre Village, Cabo Delgado, Mozambique",-13.3747241,39.9674159,"Chiúre-Velho, Chiure Velho, Chiúre, Cabo Delgado, Zona Norte, Moçambique"
City  -Allahabad (Prayagraj)  India,25.4381302,81.8338005,"Prayagraj, Uttar Pradesh, 211001, India"
"Clearfield, USA",40.9908706,-78.4457422,"Clearfield County, Pennsylvania, United States"
"Cocalzinho de Goiás, Brazil",-15.7762854,-48.7730427,"Cocalzinho de Goiás, Região Geográfica Imediata de Águas Lindas de Goiás, Região Integrada de Desenvolvimento do Distrito Federal e Entorno, Região Geográfica Intermediária de Luziânia-Águas Lindas de Goiás, Goiás, Região Centro-Oeste, Brasil"
"Cockeysville, Maryland",39.483758800000004,-76.62351052,"Cockeysville, The Lakes, Baltimore County, Maryland, United States"
"Coimbatore, India",11.0018115,76.9628425,"Coimbatore, Coimbatore North, Coimbatore, Tamil Nadu, 641001, India"
"Colombo, Sri Lanka",6.9388614,79.8542005,"Colombo, Colombo District, Western Province, Sri Lanka"
COLORADO DO OESTE,-13.117431,-60.545428,"Colorado do Oeste, Região Geográfica Imediata de Vilhena, Região Geográfica Intermediária de Ji-Paraná, Rondônia, Região Norte, 76993-000, Brasil"
Concepción- Chile,-36.8270698,-73.0502064,"Concepción, Provincia de Concepción, Región del Biobío, Chile"
COSTA RICA MS -BRASIL,-18.5333859,-53.1394286,"Costa Rica, Região Geográfica Imediata de Coxim, Região Geográfica Intermediária de Campo Grande, Mato Grosso do Sul, Região Centro-Oeste, 79550-000, Brasil"
"Cotonou, Benin",6.3676953,2.4252507,"Cotonou, Littoral, Bénin"
"Cottage Grove, Oregon, United States",43.7974729,-123.058896,"Cottage Grove, Lane County, Oregon, 97424, United States"
"Coventry, United Kingdom",52.4081812,-1.510477,"Coventry, West Midlands, England, United Kingdom"
Coxsbazar,21.4329797,92.0020272,"South rumaliarchora coxsbazar, R180, কক্সবাজার, কক্সবাজার জেলা, Chittagong Division, 4700, বাংলাদেশ"
Crestline,34.247549250000006,-117.2860371,"Crestline, San Bernardino County, California, 92322, United States"
"Cuddalore, Tamil Nadu,",11.52020705,79.33963564750636,"Cuddalore, Tamil Nadu, India"
"CUETZALAN DEL PROGRESO, PUEBLA, MEXICO",20.027219199999998,-97.49385353,"Cuetzalan del Progreso, Puebla, México"
Cuiabá,-15.5986686,-56.0991301,"Cuiabá, Região Geográfica Imediata de Cuiabá, Região Metropolitana do Vale do Rio Cuiabá, Região Geográfica Intermediária de Cuiabá, Mato Grosso, Região Centro-Oeste, Brasil"
"Dakar, Sénégal",14.693425,-17.447938,"Dakar, Région de Dakar, Sénégal"
"Dallas, Texas",32.7762719,-96.7968559,"Dallas, Dallas County, Texas, United States"
"Dar es Salaam, Tanzania",-6.8160837,39.2803583,"Dar es-Salaam, Coastal Zone, Tanzania"
"Dartford, Kent, UK",51.4443059,0.21807,"Dartford, Kent, England, United Kingdom"
Dawsonville GA,34.4212053,-84.1190804,"Dawsonville, Dawson County, Georgia, United States"
"Dehradun, India",30.3255646,78.0436813,"Dehradun, Uttarakhand, 248001, India"
"Delhi, India",28.6273928,77.1716954,"Delhi, India"
Delmas,18.5518464,-72.2920071,"Commune de Delmas, Arrondissement de Port-au-Prince, Département de l'Ouest, Ayiti"
"Deluun, Mongolia",47.7242703,90.67236025347819,"Дэлүүн ᠳᠡᠯᠢᠭᠦᠨ, Баян-Өлгий ᠪᠠᠶ᠋ᠠᠨ ᠥᠯᠦᠭᠡᠢ, Монгол улс ᠮᠤᠩᠭᠤᠯ ᠤᠯᠤᠰ"
"Dhaka, Bangladesh",23.7544529,90.393336,"ঢাকা, ঢাকা মহানগর, ঢাকা জেলা, ঢাকা বিভাগ, 2015, বাংলাদেশ"
Dhamtari - Chhattisgarh,20.532625850000002,81.71559867809776,"Dhamtari, Chhattisgarh, India"
"Dharmapuri, Tamil Nadu",12.14561305,78.11322171666458,"Dharmapuri, Tamil Nadu, India"
"Dhule, Maharashtra, India",21.1305215,74.49006143365727,"Dhule, Maharashtra, India"
"DIEGO MARTIN, TRINIDAD AND TOBAGO",10.71385965,-61.57935551,"Diego Martin, Trinidad and Tobago"
"Dodoma, Tanzania",-6.1791181,35.7468174,"Dodoma, Dodoma City, Dodoma, Central Zone, Tanzania"
"Douala, Cameroon",4.0429389,9.7062018,"Douala, Douala II, Communauté urbaine de Douala, Wouri, Littoral, Cameroun"
DOURADOS - MATO GROSSO DO SUL - BRASIL,-22.2206145,-54.812208,"Dourados, Região Geográfica Imediata de Dourados, Região Geográfica Intermediária de Dourados, Mato Grosso do Sul, Região Centro-Oeste, Brasil"
"Dowa, Malawi",-13.53875785,33.77810798,"Dowa, Central Region, Malawi"
"Dschang, Cameroon",5.4469923,10.053309,"Dschang, Menoua, Cameroun"
Duluth,46.7729322,-92.1251218,"Duluth, Saint Louis County, Minnesota, United States"
"Dunedin, USA",28.0116627,-82.7893788,"Dunedin, Pinellas County, Florida, 34698, United States"
"Ekiti State, Nigeria",7.736891,5.2738326,"Ekiti, Nigeria"
Eldoret Kenya,0.5198329,35.2715481,"Eldoret, Kimumu ward, Moiben, Uasin Gishu, Rift Valley, 30100, Kenya"
Embu Town,-0.892776171,37.22808273288474,"Embu-Nairobi Highway, Kambiti Town, Murang`a South, Murang`a, Central Kenya, Kenya"
"Enugu, Nigeria.",6.4499833,7.5000007,"Enugu, Enugu North, Enugu, 400102, Nigeria"
"Ethiopia,Tigray,Mekelle",13.4966644,39.4768259,"Mekelle, ትግራይ, ኢትዮጵያ"
"Fairbanks, Alaska, United States",64.837845,-147.716675,"Fairbanks, Fairbanks North Star Borough, Alaska, United States"
"Faridabad, India",28.4031478,77.3105561,"Faridabad, Haryana, 121001, India"
"Federal Capital Territory, Abuja, Nigeria.",9.0805107,7.496900526205773,"Apostolic Nunciature, 541, Pope John Paul II Crescent, Maitama, Abuja, Municipal Area Council, Federal Capital Territory, 900271, Nigeria"
"Florianópolis, Brazil",-27.5973002,-48.5496098,"Florianópolis, Região Geográfica Imediata de Florianópolis, Região Geográfica Intermediária de Florianópolis, Santa Catarina, Região Sul, Brasil"
fond du lac,43.7533414,-88.4493796,"Fond du Lac County, Wisconsin, United States"
"Formiga, Brazil",-20.4648425,-45.4266753,"Formiga, Região Geográfica Imediata de Formiga, Região Geográfica Intermediária de Divinópolis, Minas Gerais, Região Sudeste, Brasil"
"Fort Beaufort, South Africa",-32.7766075,26.6333138,"KwaMaqoma, Nkonkobe Local Municipality, Amathole District Municipality, Eastern Cape, 5720, South Africa"
"Fort Portal City , Uganda",0.6561907,30.2779432,"Fort Portal City, Western Region, Uganda"
"Fortaleza, Brazil",-3.7304512,-38.5217989,"Fortaleza, Região Geográfica Imediata de Fortaleza, Região Geográfica Intermediária de Fortaleza, Ceará, Região Nordeste, Brasil"
FortPortal,0.6508416,30.272629,"Fortportal Branch, 30, Malibo Road, Nyarurara A, Fort Portal City, Western Region, Uganda"
"Freetown, Sierra Leone",8.479004,-13.26795,"Freetown, Western Area Urban, Western Area, Sierra Leone"
"Gaborone, Botswana",-24.6581357,25.9088474,"Gaborone, Botswana"
Gainesville,29.6519684,-82.3249846,"Gainesville, Alachua County, Florida, United States"
"Gandhinagar, Gujarat 382722.",23.2232877,72.6492267,"Gandhinagar, Gandhinagar Taluka, Gandhinagar, Gujarat, India"
"Garnett, Kansas",38.2805772,-95.2419192,"Garnett, Anderson County, Kansas, United States"
Garowe,8.406143,48.483195,"Garoowe غاروي, Garowe غاروي, Nugaal نوجال, Puntland أرض البنط, Soomaaliya الصومال"
Gasabo,-1.9523076,30.1704795,"Gasabo, Akarere ka Gasabo, Umujyi wa Kigali, Rwanda"
"Geita town, Tanzania",-2.8707573,32.2340831,"Geita Town, Geita, Lake Zone, 30404, Tanzania"
"George, South Africa",-33.9597212,22.4587148,"Garden Route District Municipality, Western Cape, South Africa"
GHANA BONO EAST REGION KINTAMPO,8.053714,-1.728919,"Kintampo, Kintampo North Municipal District, Bono East Region, Ghana"
"Ghaziabad, India",28.7749966,77.45869671,"Ghaziabad, Uttar Pradesh, India"
"Gitega, Burundi",-3.4284953,29.9249718,"Gitega, Burundi"
"Goma, Democratic Republic of the Congo",-1.6665685,29.225652,"Goma, Nord-Kivu, République démocratique du Congo"
"Gombe State, Nigeria",10.430401849999999,11.206540782332173,"Gombe, Nigeria"
Gomia Bokaro Jharkhand,23.813892,85.8240995,"IEL Gomia, Gumia, Bokaro, Jharkhand, 829112, India"
"Gorakhpur, Uttar Pradesh, India",26.6677977,83.36423338,"Gorakhpur, Uttar Pradesh, India"
"Greater Accra, Ghana",5.8101532,0.0995242,"Greater Accra Region, Ghana"
Greenbelt Maryland,39.004607,-76.8756838,"Greenbelt, Prince George's County, Maryland, 20770, United States"
Greensboro,36.0726355,-79.7919754,"Greensboro, Guilford County, North Carolina, United States"
Guinea Conakry,10.7226226,-10.7083587,Guinée
"Gujarat, India",22.3850051,71.745261,"Gujarat, India"
"Guntur,India",16.2915189,80.4541588,"Guntur, Andhra Pradesh, 522001, India"
"Gurugram, India",28.4646148,77.0299194,"Gurugram, Haryana, India"
Guwahati,26.1805978,91.753943,"Guwahati, Kamrup Metropolitan, Assam, 781015, India"
"Gweru, Zimbabwe",-19.4616316,29.8205953,"Gweru, Midlands, Zimbabwe"
"Haiti, Caribbean",18.4,-75,"Caribbean, Ayiti"
"Harare, Zimbabwe",-17.8567035,31.0601584,"Harare Province, Zimbabwe"
Haryana,29,76,"Haryana, India"
"Henderson, Nevada",36.0319843,-114.9822486,"Henderson, Clark County, Nevada, United States"
"Himatnagar, India",23.5971246,72.9588273,"Himatnagar, Himatnagar Taluka, Sabarkantha, Gujarat, 383001, India"
"Ho Chi Minh, Vietnam",10.7763897,106.7011391,"Thành phố Hồ Chí Minh, Việt Nam"
"Hola, Tana River County, Kenya",-1.4976808,40.034911,"Hola, Galole, Tana River, Coast, 70101, Kenya"
HOMA BAY,-0.56396015,34.31878185590796,"Homa Bay, Nyanza, Kenya"
"Houston, TX",29.7589382,-95.3676974,"Houston, Harris County, Texas, United States"
Hpa An,16.8902634,97.6362745,"ဘားအံ, ဘားအံခရိုင်, ကရင်ပြည်နယ်, 10311, မြန်မာ"
"Hyderabad, Sindh, Pakistan",25.4075358,68.36134563257718,"حیدرآباد, ضلع حیدرآباد, حیدر آباد ڈویژن, سندھ, پاکستان"
"Hyderabad,India",17.360589,78.4740613,"Hyderabad, Bahadurpura mandal, Hyderabad, Telangana, India"
"Igabi, Nigeria",10.7490822,7.528949832280797,"Igabi, Kaduna, Nigeria"
"Igreja Nova, Alagoas, Brasil",-10.1267244,-36.658151,"Igreja Nova, Região Geográfica Imediata de Penedo, Região Geográfica Intermediária de Maceió, Alagoas, Região Nordeste, Brasil"
"Ilford, United Kingdom",51.5582734,0.0711669,"Ilford, Greater London, England, IG1 1DL, United Kingdom"
"Indore, India",22.7203616,75.8681996,"Indore, Juni Indore Tahsil, Indore, Madhya Pradesh, 452001, India"
Iowa City,41.6612561,-91.5299106,"Iowa City, Johnson County, Iowa, United States"
Iranduba/Amazonas/Brasil,-3.2758203,-60.1867429,"Iranduba, Região Geográfica Imediata de Manaus, Região Geográfica Intermediária de Manaus, Amazonas, Região Norte, Brasil"
Iraq,33.0955793,44.1749775,العراق
Iseyin,7.9710106,3.5956141,"Ìsẹ́yìn, Oyo, Nigeria"
"Islamabad, Pakistan",33.6938118,73.0651511,"اسلام آباد, زون 1, وفاقی دارالحکومت اسلام آباد, 44000, پاکستان"
Itapetininga,-23.588607,-48.048326,"Itapetininga, Região Imediata de Itapetininga, Região Metropolitana de Sorocaba, Região Geográfica Intermediária de Sorocaba, São Paulo, Região Sudeste, Brasil"
Itatira- Ceará-Brasil,-4.5305504,-39.6210481,"Itatira, Região Geográfica Imediata de Canindé, Região Geográfica Intermediária de Fortaleza, Ceará, Região Nordeste, 62720-000, Brasil"
"Jabalpur, India",23.1701522,79.9324505,"Jabalpur, Ranjhi Tahsil, Jabalpur, Madhya Pradesh, India"
Jacmel,18.2352587,-72.5375127,"Jacmel, Commune Jacmel, Arrondissement de Jacmel, Département du Sud-Est, 9110, Ayiti"
"Jaipur, India",26.9154576,75.8189817,"Jaipur, Jaipur Municipal Corporation, Jaipur Tehsil, Jaipur, Rajasthan, 302001, India"
"Jakarta, Indonesia",-6.1754049,106.827168,"Daerah Khusus ibukota Jakarta, Jawa, Indonesia"
"Jammu, India",32.7185614,74.8580917,"Jammu, Jammu and Kashmir, 180001, India"
"Jamnagar, Gujarat",22.4732415,70.0552102,"Jamnagar, Jamnagar City Taluka, Jamnagar, Gujarat, India"
"Japan,Tokyo",35.6768601,139.7638947,"東京都, 日本"
Jharkhand,23.4559809,85.2557301,"Jharkhand, India"
Jimeta-Yola,9.213442223882156,12.464542908609742,"Ganye - Jimeta Federal Road, Yola, Yola North, Adamawa, Nigeria"
"Jinja city, Uganda",0.4353036,33.2055568,"Jinja City, Eastern Region, Uganda"
Jodhpur Rajasthan,26.2967719,73.0351433,"Jodhpur, Jodhpur Tehsil, Jodhpur, Rajasthan, India"
"Johannesburg,South Africa",-26.205,28.049722,"Johannesburg, City of Johannesburg Metropolitan Municipality, Gauteng, 2001, South Africa"
Jordan,44.6663146,-93.6261918,"Jordan, Scott County, Minnesota, United States"
"Juba, South Sudan",4.8459246,31.5959173,"Juba City, Juba, Central Equatoria الاستوائية المركزية, South Sudan جنوب السودان"
"Junagadh, Gujarat",21.5220416,70.4582458,"Junagadh, Junagadh City Taluka, Junagadh, Gujarat, 362015, India"
Kabul Afghanistan,34.5266431,69.1849082,"کابل, کابل ښاروالۍ, ولایت كابل, 1001, افغانستان"
Kachchh,23.583333,70,"Kutch, Gujarat, India"
"Kaduna, Kaduna State, Nigeria",10.5182899,7.4359863,"Kaduna, Kabala, Kaduna North, Kaduna, 800211, Nigeria"
"Kailahun,  Eastern Sierra Leone",8.2820297,-10.5551953,"Kailahun, Kailahun District, Eastern Province, Sierra Leone"
"Kailua Kona, Hawaii",19.641941,-155.996933,"Kailua, Hawaiʻi County, Hawaii, United States"
"Kakamega, Kenya",0.4957104,34.801548861634615,"Kakamega, Western, Kenya"
"Kakuma, Kenya",3.706286,34.873489,"Kakuma Town, Turkana, Rift Valley, Kenya"
Kalyan,19.2396742,73.1366482,"Kalyan, Kalyan-Dombivli, Kalyan Taluka, Thane, Maharashtra, India"
"Kampala, Uganda",0.3177137,32.5813539,"Kampala Capital City, Kampala, Central Region, Uganda"
"Kanchipuram, India",12.9647163,79.9839686,"Kanchipuram, Tamil Nadu, India"
"Kannur, Kerala (IN)",11.8763836,75.3737973,"Kannur, Kerala, India"
"Kano, Nigeria",11.9939978,8.5219738,"Kano, Yakasai, Kano Municipal, Kano, 700271, Nigeria"
"Kapiri Mposhi, Zambia",-13.9695026,28.6787997,"Kapiri Mposhi, Kapiri Mposhi District, Central Province, Zambia"
"Karachi, Pakistan",24.8546842,67.0207055,"کراچی ڈویژن, سندھ, پاکستان"
Karnataka (IN),14.5203896,75.7223521,"Karnataka, India"
"Karuzi, Burundi",-3.1255377,30.0978347,"Karuzi, Burundi"
"Kasese, Uganda",0.1310412,30.00479684525631,"Kasese, Western Region, Uganda"
Kasoa,5.532573,-0.437491,"Kasoa, Gomoa East District, Central Region, Ghana"
Kasungu,-12.99248765,33.472356695915096,"Kasungu, Central Region, Malawi"
Katavi-Tanzania,-6.3015493,30.9278274,"Katavi, Western Zone, Tanzania"
"Kathmandu, Nepal",27.708317,85.3205817,"काठमाडौँ महानगरपालिका, काठमाडौं, बागमती प्रदेश, नेपाल"
"Katsina, Nigeria",12.5630825,7.6207063,"Katsina, Nigeria"
"Kent, United Kingdom",51.20707485,0.7210361813401444,"Kent, England, United Kingdom"
"Kent, Washington",47.3826903,-122.2270272,"Kent, King County, Washington, United States"
"Kenya ,Baringo County",0.4926332,35.7416031,"Vision Fund Kenya, Kabarnet Road, Kabarnet, Baringo Central, Baringo, Rift Valley, 30400, Kenya"
"Kesavadasupalem, Andhra Pradesh, India",16.3598157,81.7955795,"Kesavadasupalem, Sakhinetipalle, Dr. B. R. Ambedkar Konaseema, Andhra Pradesh, 533250, India"
"Keta, Ghana",5.9215688,0.9910728,"Keta, Keta Municipal District, Volta Region, VK-0033-1041, Ghana"
"Khulna, Bangladesh",22.9372087,89.2852741,"খুলনা বিভাগ, বাংলাদেশ"
Kiambu,-1.03639505,36.843131163110776,"Kiambu, Central Kenya, Kenya"
"Kiboga, Uganda",0.85925585,31.928348891802138,"Kiboga, Central Region, Uganda"
"Kigali, Rwanda",-1.8859597,30.1296751,"Umujyi wa Kigali, Rwanda"
"Kigoma, Buhigwe district",-4.460744,29.8885277,"Buhigwe District Council, R330, Buhigwe, Kigoma, Western Zone, Tanzania"
"Kinshasa, DRC",-4.3196982,15.3424196,"Kinshasa, République démocratique du Congo"
Kiserian; Kajiado North; Kenya,-1.4258317,36.685989,"kiserian oloolaiser water, Kiserian, Kajiado North, Kajiado, Rift Valley, Kenya"
Kisii County of Kenya,-0.6858902,34.78755041113248,"Kenya Institute of Highway & Building Technology (Kisii Training Center), A1 Kisii-Keroka-Sotik-Litein-Chemosit-A12 Kericho, Bobaracho ward, Kisii Central, Kisii, Nyanza, Kenya"
"Kisumu, Kenya",-0.1029109,34.7541761,"Kisumu, City of Kisumu, Kisumu, Nyanza, Kenya"
"KITALE, KENYA",1.018076,35.000236,"Kitale, Saboti, Trans Nzoia, Rift Valley, Kenya"
"Kochi, India",9.9674277,76.2454436,"Kochi, Ernakulam, Kerala, 682001, India"
"Kolkata, India",22.5726459,88.3638953,"Kolkata, West Bengal, India"
"kopargaon, Maharashtra, India.",19.8370037,74.48291234,"Kopargaon, Ahmednagar, Maharashtra, India"
"KORBA, Chattisgarh",22.5198217,82.63500285150224,"Korba, Chhattisgarh, India"
"Kota Kinabalu, Malaysia",5.9780066,116.0728988,"Kota Kinabalu, Bahagian Pantai Barat, Sabah, 88000, Malaysia"
"Kuala Lumpur, Malaysia",3.1526589,101.7022205,"Kuala Lumpur, Malaysia"
"Kumasi, Ghana",6.6985605,-1.6233086,"Kumasi, Kumasi Metropolitan District, Ashanti Region, Ghana"
"Lafayette, Louisiana",30.2262187,-92.0178202,"Lafayette, Lafayette Parish, Louisiana, United States"
"Lagos, Nigeria",6.4550575,3.3941795,"Lagos, Lagos Island, Lagos, 100242, Nigeria"
"Lahore, Pakistan",31.5656822,74.3141829,"لاہور, تحصیل لاہور شہر, ضلع لاہور, لاہور ڈویژن, پنجاب, 54500, پاکستان"
Lambare,-25.3455354,-57.6261456,"Lambaré, Central, Región Oriental, Paraguay / Paraguái"
Las Vegas NV,36.1672559,-115.148516,"Las Vegas, Clark County, Nevada, United States"
"Lausanne, Switzerland",46.5218269,6.6327025,"Lausanne, District de Lausanne, Vaud, Schweiz/Suisse/Svizzera/Svizra"
"León, Spain",42.5989995,-5.5682413,"León, Castilla y León, España"
Lihue,21.9769622,-159.3687721,"Līhuʻe, Kauaʻi County, Hawaii, 96766, United States"
"Lilongwe, Malawi",-13.9875107,33.768144,"Lilongwe, Central Region, Malawi"
"Lima, Peru",-12.0621065,-77.0365256,"Lima, Lima Metropolitana, Lima, 15083, Perú"
"Limbe, Cameroon",4.010289,9.207058,"Limbé, Limbé I, Communauté urbaine de Limbé, Fako, Southwest, Cameroun"
Lira,41.79954695,12.591271133206927,"Aeroporto di Roma-Ciampino, Via Carlo Simeoni, Municipio Roma VII, Roma, Roma Capitale, Lazio, 00043, Italia"
Lithia,37.4781901,-79.7514284,"Lithia, Botetourt County, Virginia, United States"
"Livingstone, Zambia",-17.853135,25.861429,"Livingstone, Livingstone District, Southern Province, Zambia"
"London, United Kingdom",51.5074456,-0.1277653,"London, Greater London, England, United Kingdom"
Londrina,-23.3112878,-51.1595023,"Londrina, Região Geográfica Imediata de Londrina, Região Geográfica Intermediária de Londrina, Paraná, Região Sul, Brasil"
"Los Angeles, US",34.0536909,-118.242766,"Los Angeles, Los Angeles County, California, United States"
"Louisville, Kentucky",38.2542376,-85.759407,"Louisville, Jefferson County, Kentucky, United States"
"Lucknow, India",26.8381,80.9346001,"Lucknow, Uttar Pradesh, 226027, India"
"LUSAKA, ZAMBIA",-15.4163395,28.2818414,"Lusaka, Lusaka District, Lusaka Province, 10101, Zambia"
"Lusaka, Zambia",-15.4163395,28.2818414,"Lusaka, Lusaka District, Lusaka Province, 10101, Zambia"
Macapá - AP,0.0401529,-51.0569588,"Macapá, Região Geográfica Imediata de Macapá, Região Geográfica Intermediária de Macapá, Amapá, Região Norte, Brasil"
"Madagascar, Antananarivo",-18.9100122,47.5255809,"Antananarivo, Analamanga, Province d’Antananarivo, 101, Madagasikara / Madagascar"
"Madanapalle, India",13.5557979,78.500872,"Madanapalle, Annamayya, Andhra Pradesh, 517300, India"
Madhya Pradesh,23.8143419,77.5340719,"Madhya Pradesh, India"
"Madre de Dios, Peru",-12,-70.25,"Madre de Dios, Perú"
Maharashtra,18.9068356,75.6741579,"Maharashtra, India"
Maiduguri Borno State Nigeria,11.8395375,13.1536214,"Maiduguri, Borno, 600233, Nigeria"
Makassar,-5.1342962,119.4124282,"Makassar, Sulawesi Selatan, Sulawesi, Indonesia"
"Makurdi, Nigeria",7.7312634,8.538425,"Markurdi, Benue, Nigeria"
"Malabo, Equatorial Guinea",3.741877,8.7740663,"Malabo, Bioko Norte, Región Insular, Guinea Ecuatorial"
"Malakal, South Sudan",9.5388487,31.6584168,"Malakal, Makal Shilluk Island, Malakal, Upper Nile أعالى النيل, South Sudan جنوب السودان"
"Malappuram, India",11.10684475,76.10995510466662,"Malappuram, Kerala, India"
Malaysia,4.5693754,102.2656823,Malaysia
Malindi,-6.1577281,39.196562398333526,"Malindi, Mjini, Unguja Mjini Magharibi, Zanzibar زنجبار, 71103, Tanzania"
"Manaus, Amazonas - Brasil",-3.1316333,-59.9825041,"Manaus, Região Geográfica Imediata de Manaus, Região Geográfica Intermediária de Manaus, Amazonas, Região Norte, 69000-000, Brasil"
"Manchester, United Kingdom",53.4794892,-2.2451148,"Manchester, Greater Manchester, England, United Kingdom"
MANDIDEEP,23.093838,77.5114296,"Mandideep, NH46, Mandideep, Goharganj Tahsil, Raisen, Madhya Pradesh, 462046, India"
Manga/région du Centre Sud,11.6673837,-1.0723972,"Manga, Zoundwéogo, Centre-Sud, Burkina Faso"
Mangalore,12.8698101,74.8430082,"Mangaluru, Mangaluru taluk, Dakshina Kannada, Karnataka, 575001, India"
"Mankayane, Eswatini",-26.6804367,31.0578928,"Mankayane, Inkhundla Ngwempisi, Manzini, Eswatini"
"Maputo, Mozambique",-25.966213,32.56745,"Cidade de Maputo, Zona Sul, Moçambique"
"Mara, Tanzania",-1.6409527,33.8421608,"Mara, Lake Zone, Tanzania"
"Maralal, Samburu County, Kenya",0.9488494999999999,36.758370865497284,"Kisima Airport, A4, Pooro ward, Samburu Central, Samburu, Rift Valley, Kenya"
"Marilla, Brazil",-16.3258065,-49.01453189,"Avenida Marilla, Lapa, Anápolis, Região Geográfica Imediata de Anápolis, Região Geográfica Intermediária de Goiânia, Goiás, Região Centro-Oeste, 75134-547, Brasil"
"Marondera , Zimbabwe",-18.190098,31.545542,"Marondera, Mashonaland East, Zimbabwe"
Masaka City Uganda,-0.3390264,31.7465839,"Masaka City, Central Region, Uganda"
"Maseru, Lesotho",-29.310054,27.478222,"Maseru, Ha Tsiu, Maseru District, 100, Lesotho"
"Maun, Botswana",-19.9860951,23.4224352,"Maun, North-West District, Botswana"
"Mazar-i-Sharif, Afghanistan",36.7090366,67.1114085,"مزار شريف, ولایت بلخ, 1701, افغانستان"
"Mbale, Uganda",0.9765705499999999,34.202186921889464,"Mbale, Eastern Region, Uganda"
Mbarara-Uganda,-0.4180848,30.573737377548046,"Mbarara, Western Region, Uganda"
"Medellin, Colombia",6.269732449999999,-75.60255965,"Medellín, Valle de Aburrá, Antioquia, RAP del Agua y la Montaña, 0500, Colombia"
"Mehsana, India",23.601262849999998,72.37415155167554,"Mehsana Airport, Malgodown road, Suryoday Nagar, Mahesana, Mahesana Taluka, Mahesana, Gujarat, 384001, India"
"Melbourne, Australia",-37.8142454,144.9631732,"Melbourne, City of Melbourne, Victoria, Australia"
"Milan, Italy",45.4641943,9.1896346,"Milano, Lombardia, Italia"
"Minna, Nigeria",9.6187093,6.5475752,"Minna, Chanchaga, Niger, 920101, Nigeria"
Mizoram,23.2146169,92.8687612,"Mizoram, India"
"Mohali, India",30.7041168,76.7176885,"Mohali, Sahibzada Ajit Singh Nagar, Punjab, 160061, India"
"Molo, Kenya",-0.35471985,35.79163929322296,"Molo, Nakuru, Rift Valley, 20102, Kenya"
"Mombasa, Kenya",-4.05052,39.667169,"Mombasa, Mvita, Mombasa, Coast, 80100, Kenya"
"Momella, Tanzania",-3.221889919,36.85322412590381,"Momella, Momella, Ngarenanyuki, Meru, Arusha, Northern Zone, Tanzania"
"Moncton, New Brunswick",46.0985679,-64.8004265,"Moncton, Moncton Parish, Westmorland County, New Brunswick / Nouveau-Brunswick, Canada"
"Montes Claros, Minas Gerais, Brasil",-16.7495727,-43.8687268,"Montes Claros, Região Geográfica Imediata de Montes Claros, Região Geográfica Intermediária de Montes Claros, Minas Gerais, Região Sudeste, Brasil"
"Montieth Road, Chennai, INDIA",13.067033191236778,80.25947184989737,"Montieth Road, Ward 61, Zone 5 Royapuram, Chennai, Tamil Nadu, 600001, India"
"Montreal, Quebec, Canada",45.5031824,-73.5698065,"Montréal, Agglomération de Montréal, Montréal (région administrative), Québec, Canada"
Morada Nova- Ceará - Brasil,-5.1076699,-38.3727852,"Morada Nova, Região Geográfica Imediata de Russas - Limoeiro do Norte, Região Geográfica Intermediária de Quixadá, Ceará, Região Nordeste, 62940-000, Brasil"
"Morbi, Gujarat",22.800395899999998,70.88623203876728,"Morbi, Gujarat, India"
"Morelia, Michoacan, Mexico",19.6546004,-101.2623797,"Morelia, Michoacán, México"
"Morogoro, Tanzania",-7.0842931,37.4232686,"Morogoro, Coastal Zone, Tanzania"
"Amirim, Israel",32.9374962,35.4499969,"אמירים, מועצה אזורית מרום הגליל, נפת צפת, מחוז הצפון, ישראל"
"Mozambique, Nampula city",-15.1194063,39.2615886,"Nampula, Cidade de Nampula, Nampula, Zona Norte, Moçambique"
"Mponela, Malawi",-13.5297184,33.7371277,"Mponela, Dowa, Central Region, Malawi"
"Mpumalanga, South Africa",-26.276849,30.1500153,"Mpumalanga, South Africa"
"Mtwara Region, Tanzania",-10.6990264,39.0217984,"Mtwara, Coastal Zone, Tanzania"
Muhanga,-2.04308755,29.71802273203935,"Muhanga, Akarere ka Muhanga, Amajvepfo, Rwanda"
"Mukono Municipality, Uganda",0.35992625,32.746380823458324,"Mukono Municipality, Jinja - Kampala Road, Seeta, Mukono, Central Region, Uganda"
"Mumbai, India",19.054999,72.8692035,"Mumbai Suburban, Maharashtra, India"
"Mumbwa, Zambia",-14.9850046,27.0613764,"Mumbwa, Mumbwa District, Central Province, Zambia"
"Murang'a, Kenya",-0.83170875,37.00492162779861,"Murang`a, Central Kenya, Kenya"
"Murhu, India",22.9512605,85.28728896028491,"Murhu, Khunti, Jharkhand, 835216, India"
Musoma,-1.4998186,33.8083018,"Musoma, Musoma Municipal, Mara, Lake Zone, 31100, Tanzania"
"Mwanza, Tanzania",-2.5196915,32.9014417,"Mwanza, Nyamagana, Mwanza, Lake Zone, 33214, Tanzania"
"Mysore, Karnataka, India",12.3051828,76.6553609,"Mysuru, Mysuru taluk, Mysuru, Karnataka, 570001, India"
"Mzuzu, Malawi",-11.4607518,34.0226422,"Mzuzu, Mzimba, Northern Region, Malawi"
"Nablus, Palestine",32.2280665,35.2370416,"منتجع حياة نابلس, Tunis, رفيديا البلد, نابلس, منطقة أ, الضفة الغربية, +970, Palestinian Territory"
"Nagpur, India",21.1498134,79.0820556,"Nagpur City, Nagpur Urban Taluka, Nagpur, Maharashtra, India"
"Nairobi, Kenya",-1.30261485,36.82884201813725,"Nairobi, Kenya"
"Nakuru, Kenya",-0.2802724,36.0712048,"Nakuru, Nakuru West, Nakuru, Rift Valley, 20100, Kenya"
Namibia,-23.2335499,17.3231107,Namibia
"Nandurbar, India",21.51416215,74.54055132515717,"Nandurbar, Maharashtra, India"
"Nanyuki, Kenya",0.01403,37.074632,"Nanyuki, Laikipia East, Laikipia, Rift Valley, Kenya"
"Nasarawa state, Nigeria.",8.4387868,8.2382849,"Nasarawa, Nigeria"
"Natitingou, Benin",10.3051511,1.3808554,"Natitingou, Atakora, Bénin"
"New Delhi, India",28.64308585,77.21926705734865,"New Delhi, Babu Ram Solanki Marg, Ram Nagar, Old Delhi, Delhi, Kotwali Tehsil, Central Delhi, Delhi, 110055, India"
"New York City, New York",40.7127281,-74.0060152,"City of New York, New York, United States"
Niamey,13.524834,2.109823,"Niamey, Niger"
"Noida, India.",28.5706333,77.3272147,"Noida, Dadri, Gautam Buddha Nagar, Uttar Pradesh, 201301, India"
"Norman, Oklahoma",35.2225717,-97.4394816,"Norman, Cleveland County, Oklahoma, United States"
"Northern Bahr el Ghazal State, South Sudan",9,27,"Northern Bahr El Ghazal بحر الغزال الشمالى, South Sudan جنوب السودان"
"Nova Odessa - São Paulo, Brazil",-22.7805746,-47.2993805,"Nova Odessa, Região Imediata de Campinas, Região Metropolitana de Campinas, Região Geográfica Intermediária de Campinas, São Paulo, Região Sudeste, Brasil"
"Nyagatare District, Rwanda",-1.2969715,30.366263385614786,"Nyagatare District, Iburasirasuba, Rwanda"
"Nyeri, Kenya",-0.4192962,36.9517005,"Nyeri, Nyeri Central, Nyeri, Central Kenya, Kenya"
"Oakland, California, USA",37.8044557,-122.271356,"Oakland, Alameda County, California, United States"
Odisha (India),20.5431241,84.6897321,"Odisha, India"
"Ogun, Nigeria",6.9788582,3.4389293,"Ogun, Nigeria"
"Oldest Congo Town, Monrovia",6.265332771104875,-10.72386866,"Oldest Congo Town Road, Congo Town, Monrovia, Greater Monrovia, Montserrado County, 6133, Liberia"
Omaha,41.2587459,-95.9383758,"Omaha, Douglas County, Nebraska, United States"
"Onitsha, Nigeria",6.1461619,6.8019088,"Onitsha, Onitsha North, Anambra, 430231, Nigeria"
"Orissa ,India",20.5431241,84.6897321,"Odisha, India"
"Ota, Nigeria",7.95,4.8,"Ota, Boluwaduro, Osun, Nigeria"
"Owerri, Imo State, Nigeria",5.489736,7.0341973,"Owerri, Owerri Municipal, Imo, 460242, Nigeria"
"PA, USA",40.9699889,-77.7278831,"Pennsylvania, United States"
"Pakke Kessang, India",27.15828555,93.15615024389129,"Pakke-Kessang, Arunachal Pradesh, India"
Palghar,19.757249,73.09311986183509,"Palghar, Maharashtra, India"
"Pali, Rajasthan, India",25.45522105,73.41938896,"Pali, Rajasthan, India"
"Palmas, Brazil",-10.1837852,-48.3336423,"Palmas, Região Geográfica Imediata de Palmas, Região Geográfica Intermediária de Palmas, Tocantins, Região Norte, Brasil"
Palo Alto,37.4443293,-122.1598465,"Palo Alto, Santa Clara County, California, United States"
"Panipat, Haryana, India",29.3912753,76.9771675,"Panipat, Haryana, 132100, India"
"Parachute, Colorado",39.446422999999996,-108.0522672,"Parachute, Garfield County, Colorado, United States"
"Parbhani , India",19.29019805,76.60264434278307,"Parbhani, Maharashtra, India"
"Paris, France",48.8534951,2.3483915,"Paris, Île-de-France, France métropolitaine, France"
"Patna, India",25.6093239,85.1235252,"Patna, Patna Rural, Patna, Bihar, 800001, India"
"Pemba, Cabo Delgado, Mozambique",-12.9735551,40.5215098,"Pemba, Cidade de Pemba, Cabo Delgado, Zona Norte, 3203, Moçambique"
"Perundurai, Tamil Nadu",11.2539029,77.6288316,"Perundurai, Perundurai R.S. - Arachalur Road, Kuttapalayam, Perundurai, Erode, Tamil Nadu, 638112, India"
"Petrópolis, Rio de Janeiro, Brazil",-22.5075743,-43.1785356,"Petrópolis, Região Geográfica Imediata de Petrópolis, Região Metropolitana do Rio de Janeiro, Região Geográfica Intermediária de Petrópolis, Rio de Janeiro, Região Sudeste, Brasil"
"Phoenix, AZ",33.4484367,-112.074141,"Phoenix, Maricopa County, Arizona, United States"
Piracicaba - São Paulo - Brazil,-22.725165,-47.6493269,"Piracicaba, Região Imediata de Piracicaba, Região Metropolitana de Piracicaba, Região Geográfica Intermediária de Campinas, São Paulo, Região Sudeste, Brasil"
"Plainfield, NJ, USA",40.6201412,-74.4222416,"Plainfield, Union County, New Jersey, United States"
"Ponta Porã, Mato Grosso do Sul, Brasil",-22.5286917,-55.723426,"Ponta Porã, Região Geográfica Imediata de Ponta Porã, Região Geográfica Intermediária de Dourados, Mato Grosso do Sul, Região Centro-Oeste, Brasil"
"Portland, Oregon",45.5202471,-122.674194,"Portland, Multnomah County, Oregon, United States"
"Porto Seguro, Bahia , Brasil",-16.443473,-39.064251,"Porto Seguro, Região Geográfica Imediata de Eunápolis - Porto Seguro, Região Geográfica Intermediária de Ilhéus-Itabuna, Bahia, Região Nordeste, Brasil"
"Porto Velho, Brazil",-8.7494525,-63.8735438,"Porto Velho, Região Geográfica Imediata de Porto Velho, Região Geográfica Intermediária de Porto Velho, Rondônia, Região Norte, Brasil"
"Portsaid, Egypt",31.2678486,32.2691972,"Alsideek mosque portsaid - مسجد الصديق بورسعيد, شارع الدكتور مصطفى مشرفه, منطقة ايوب, الزهور, مساكن ٥٠٠٠, بورسعيد, 42615, مصر"
"Pretoria, South Africa",-25.7459277,28.1879101,"Pretoria, City of Tshwane Metropolitan Municipality, Gauteng, 0126, South Africa"
"Puebla, Mexico.",18.833333,-98,"Puebla, México"
"Pune, India",18.5213738,73.8545071,"Pune City, Pune, Maharashtra, India"
"Punjab, India",30.9293211,75.5004841,"Punjab, India"
"Quebec City, Canada",46.8137431,-71.2084061,"Québec, Agglomération de Québec, Capitale-Nationale, Québec, Canada"
"Quetta, Pakistan",30.1916569,67.0006542,"کوئٹہ, Station road Quetta, Yakhao, جناح ٹاؤن, تحصیل کوئٹہ شہر, ضلع کوئٹہ, کوئٹہ ڈویژن, بلوچستان, 97300, پاکستان"
"Rabaul, East New Britain Province, Papua New Guinea",-4.1984592,152.1728287,"Rabaul, East New Britain, Islands Region, Papua Niugini"
"RaeBareli, Uttar Pradesh, India",26.20867685,81.21862977045768,"Raebareli, Uttar Pradesh, India"
Raipur,21.2380912,81.6336993,"Raipur, Raipur Tahsil, Raipur, Chhattisgarh, 493332, India"
Rajasthan,26.8105777,73.7684549,"Rajasthan, India"
"Rajkot, Gujarat - 360004",22.3053263,70.8028377,"Rajkot, Rajkot East Taluka, Rajkot, Gujarat, 360001, India"
"Raleigh, North Carolina",35.7803977,-78.6390989,"Raleigh, Wake County, North Carolina, United States"
"Ranchi, India",23.3700501,85.3250387,"Ranchi, Kanke, Ranchi, Jharkhand, 834001, India"
"Rangamati, Bangaladesh",22.662,92.161,
Rangareddy,16.9344152,77.7788338,"Rangareddy Palle, Gandeed mandal, Mahabubnagar, Telangana, 509337, India"
"Rangpur, Bangladesh",25.6376135,89.0826381,"রংপুর বিভাগ, বাংলাদেশ"
"Recife, Brazil",-8.0584933,-34.8848193,"Recife, Região Geográfica Imediata do Recife, Região Metropolitana do Recife, Região Geográfica Intermediária do Recife, Pernambuco, Região Nordeste, Brasil"
Republic of Yemen Sana'A Governorate,15.260691,44.424895,"محافظة صنعاء, اليمن"
"Rio de Janeiro, Brazil",-22.9110137,-43.2093727,"Rio de Janeiro, Região Geográfica Imediata do Rio de Janeiro, Região Metropolitana do Rio de Janeiro, Região Geográfica Intermediária do Rio de Janeiro, Rio de Janeiro, Região Sudeste, Brasil"
"Rishikesh, Uttarakhand",30.1086537,78.2916193,"Rishikesh, Dehradun, Uttarakhand, India"
"ROAD KOLKATA, Kolkata, West Bengal (IN).",22.486883267932207,88.30540679179714,"Road, Kolkata, West Bengal, 700034, India"
"Rockhampton, Queensland, Australia",-23.3782137,150.5134227,"Rockhampton, Rockhampton Regional, Queensland, 7200, Australia"
"Rumphi, Malawi",-10.79093265,33.85071177603609,"Rumphi, Northern Region, Malawi"
"Rungiri, Kenya",-1.242847,36.6772357,"Rungiri, Gitaru, Gitaru ward, Kabete, Kiambu, Central Kenya, 12345, Kenya"
"Rutana, Burundi",-3.8618714,30.0676979,"Rutana, Burundi"
"Ruvuma, Tanzania",-10.749721,35.6616934,"Ruvuma, Southern Highlands Zone, Tanzania"
"Rwamagana, Rwanda",-1.951239,30.434885,"Rwamagana, Kigabiro, Rwamagana District, Iburasirasuba, Rwanda"
Rwanda Kigali city,-1.8859597,30.1296751,"Umujyi wa Kigali, Rwanda"
"Sacramento, CA, United States",38.5810606,-121.493895,"Sacramento, Sacramento County, California, United States"
"Salem, India",11.64696155,78.21069575456464,"Salem, Tamil Nadu, India"
"Salempur, India",26.2967211,83.921322,"Salempur, Deoria, Uttar Pradesh, 274509, India"
Salt Lake City,40.7596198,-111.886797,"Salt Lake City, Salt Lake County, Utah, United States"
"Cundinamarca, Colombia",5.1096596,-74.0995854,"Cundinamarca, RAP (Especial) Central, Colombia"
"San Francisco, US",37.7792588,-122.4193286,"San Francisco, California, United States"
"Sanquelim, North Goa, India",15.5626483,74.0114543,"Sankhali, Bicholim, North Goa, Goa, 403505, India"
"Santo Domingo, Dominican Republic",18.4801972,-69.942111,"Santo Domingo de Guzmán, Distrito Nacional, República Dominicana"
"São Gonçalo, Rio de Janeiro/ Brazil",-22.821635,-42.99567969,"São Gonçalo, Região Geográfica Imediata do Rio de Janeiro, Região Metropolitana do Rio de Janeiro, Região Geográfica Intermediária do Rio de Janeiro, Rio de Janeiro, Região Sudeste, Brasil"
"São Paulo, Brazil",-23.5506507,-46.6333824,"São Paulo, Região Imediata de São Paulo, Região Metropolitana de São Paulo, Região Geográfica Intermediária de São Paulo, São Paulo, Região Sudeste, Brasil"
"Saran, India",25.9214451,84.77597313027485,"Saran, Bihar, India"
"Sasaram, India",24.9509656,84.0148733,"Sasaram, Rohtas, Bihar, 821115, India"
"Scottsdale, Arizona",33.4942189,-111.926018,"Scottsdale, Maricopa County, Arizona, United States"
"Seattle, WA",47.6038321,-122.330062,"Seattle, King County, Washington, United States"
"Seoul, South Korea",37.5666791,126.9782914,"서울특별시, 대한민국"
"Shanghai, China",31.224361,121.46917,
Siavonga,-16.536478,28.710204,"Siavonga, Siavonga District, Southern Province, Zambia"
Siaya - Kenya,-0.06040135,34.200135009996295,"Siaya, Nyanza, Kenya"
"Sicklerville, New Jersey",39.7173375,-74.9693329,"Sicklerville, Winslow Township, Camden County, New Jersey, United States"
"Siddhpur, India",23.918279,72.3681846,"Siddhpur, Ahmedabad Palanpur State Highway SH41, Siddhpur, Sidhpur Taluka, Patan, Gujarat, 384151, India"
"Simanjiro, Manyara, Tanzania",-4.3239863,36.90190629956295,"Simanjiro, Manyara, Northern Zone, Tanzania"
Singapore,1.357107,103.8194992,Singapore
Solapur,17.84990665,75.27632027348457,"Solapur, Maharashtra, India"
"somalia,waqooyi_galbeed",9.5995546,44.1172099,"Buur Naaso Hablood Waqooyi-Galbeed, Hargeysa هرجيسا, Woqooyi Galbeed, Soomaaliland أرض الصومال, Soomaaliya الصومال"
"Sonipat, Haryana (IN)",28.9953758,77.0233627,"Sonipat, Haryana, 131001, India"
South Africa   Mpumalanga  province Barberton,-25.782222,31.0475,"Barberton, Umjindi Local Municipality, Ehlanzeni, Mpumalanga, 1300, South Africa"
South Africa/Kroonstad,-27.6532701,27.235515,"Kroonstad, Moqhaka Local Municipality, Fezile Dabi District Municipality, Free State, 1499, South Africa"
"Sparta, North Carolina",36.5055712,-81.1207497,"Sparta, Alleghany County, North Carolina, 28675, United States"
St Augustine,40.7183728,-90.4109616,"St. Augustine, Knox County, Illinois, United States"
"St. George's, Grenada",12.0535331,-61.751805,"St. George's, Saint George, Grenada"
"Stanford, United States",37.427467,-122.1702445,"Stanford, Santa Clara County, California, United States"
staunton,38.1495947,-79.072557,"Staunton, Virginia, United States"
"Stockport, United Kingdom",53.407901,-2.160243,"Stockport, Greater Manchester, England, United Kingdom"
"Stonetown, Zanzibar",-6.2667508,39.5313473,"340 Bus Stonetown, Jambiani road, Paje, Kusini, Unguja Kusini, Zanzibar زنجبار, 72110, Tanzania"
"Stonewall, Canada",50.1342275,-97.3287254,"Stonewall, Manitoba, R0C 2Z0, Canada"
"Summerville, South Carolina",33.0186699,-80.1762704,"Summerville, Dorchester County, South Carolina, United States"
"Sunyani, Ghana.",7.3384389,-2.3309226,"Sunyani, Sunyani Municipal District, Bono Region, Ghana"
"Sydney, Australia",-33.8698439,151.2082848,"Sydney, Council of the City of Sydney, New South Wales, Australia"
"Tacoma, WA, USA",47.2455013,-122.438329,"Tacoma, Pierce County, Washington, United States"
"Takoradi, Ghana",4.887401,-1.7519316,"Takoradi, Sekondi Takoradi Metropolitan District, Western Region, Ghana"
"Talandage, India",16.6210746,74.37184668118473,"Vidyamandir Talandage, Kagal MIDC To Hupari Road, Gokul Shirgaon Five Star MIDC, Ichalkaranji, Hatkanangle, Kolhapur, Maharashtra, 416415, India"
"Talcher, India",20.9322302,85.2005822,"Talcher, Angul - Talcher Road, Talcher, Colliery, Angul, Odisha, 759100, India"
tallahassee,30.4380832,-84.2809332,"Tallahassee, Leon County, Florida, United States"
"Tamale, Ghana",9.4051992,-0.8423986,"Tamale, Tamale Metropolitan District, Northern Region, Ghana"
"Tamil Nadu, India",10.9094334,78.3665347,"Tamil Nadu, India"
Taubaté (SP) - Brazil,-23.031448,-45.5612792,"Taubaté, Região Imediata de Taubaté-Pindamonhangaba, Região Metropolitana do Vale do Paraíba e Litoral Norte, Região Geográfica Intermediária de São José dos Campos, São Paulo, Região Sudeste, Brasil"
"Techiman, Ghana",7.584971,-1.936401,"Techiman, Techiman Municipal District, Bono East Region, Ghana"
"Tel Aviv, Israel",32.0852997,34.7818064,"תל־אביב–יפו, נפת תל אביב, מחוז תל אביב, ישראל"
"Tempe, Arizona",33.4255117,-111.940016,"Tempe, Maricopa County, Arizona, United States"
"Tena, Ecuador",-0.94387175,-78.10839815,"Tena, Napo, Ecuador"
Tete-Mozambique,-15.5205193,32.7682742,"Tete, Zona Centro, Moçambique"
"Thane, India",19.1943294,72.9701779,"Thane, Thane Taluka, Thane, Maharashtra, India"
"Thika, Kenya",-1.036648,37.077523,"Thika, Thika Town, Kiambu, Central Kenya, Kenya"
"Thimphu, Bhutan",27.4713546,89.6336729,"ཐིམ་ཕུ, Chang Gewog, ཐིམ་ཕུ, ཐིམ་ཕུ་རྫོང་ཁག་, 11001, འབྲུགཡུལ་"
"Thiruvananthapuram, Kerala",8.4882267,76.947551,"Thiruvananthapuram, Kerala, 695001, India"
"Toronto, Canada",43.6534817,-79.3839347,"Toronto, Golden Horseshoe, Ontario, Canada"
"Tulln, Austria",48.3311702,16.05179,"Tulln an der Donau, Bezirk Tulln, Niederösterreich, 3430, Österreich"
Tunis,36.8002068,10.1857757,"تونس, ولاية تونس, تونس"
"Tupaciguara, Minas Gerais, Brasil",-18.5932122,-48.6999014,"Tupaciguara, Região Geográfica Imediata de Uberlândia, Região Geográfica Intermediária de Uberlândia, Minas Gerais, Região Sudeste, 38480-000, Brasil"
Uberlândia,-18.9188041,-48.2767837,"Uberlândia, Região Geográfica Imediata de Uberlândia, Região Geográfica Intermediária de Uberlândia, Minas Gerais, Região Sudeste, Brasil"
"Udaipur, India",24.578721,73.6862571,"Udaipur, Girwa Tehsil, Udaipur, Rajasthan, 313001, India"
Uganda-Mbarara City,-0.6107896,30.6533181,"Mbarara City, Western Region, Uganda"
Ujjain Madhya Pradesh,23.1885131,75.7716562,"Ujjain, Ujjain NagarTahsil, Ujjain, Madhya Pradesh, 456001, India"
Uttar Pradesh (IN),27.1303344,80.859666,"Uttar Pradesh, India"
"Uttarakhand, India",30.0417376,79.089691,"Uttarakhand, India"
"Uvira, DRC",-3.4055866,29.1375509,"Uvira, Bavira (chefferie), Uvira, Sud-Kivu, République démocratique du Congo"
Uzbekistan,41.32373,63.9528098,Oʻzbekiston
"Vadodara, India",22.2973142,73.1942567,"Vadodara, Vadodara Rural Taluka, Vadodara, Gujarat, 390001, India"
"Valsad, India",20.43219565,73.14098929730321,"Valsad, Gujarat, India"
Vancouver,49.2608724,-123.113952,"Vancouver, Metro Vancouver Regional District, British Columbia, Canada"
Varanasi 221007 - Uttar Pradesh,25.3356491,83.0076292,"Varanasi, Sadar, Varanasi, Uttar Pradesh, 221001, India"
"Vedi, Republic of Armenia",39.9138481,44.7224953,"Վեդի, Վեդի համայնք, Արարատի մարզ, 0601, Հայաստան"
"Vienna, Austria",48.2083537,16.3725042,"Wien, Österreich"
"Viet Tri city, Phu Tho province, Vietnam",21.3083588,105.41604,"Viet Tri, Phố Long Châu Sa, Thành phố Việt Trì, Tỉnh Phú Thọ, Việt Nam"
"Vito, Bolivia",-18.0160913,-67.1393502,"Vito, Oruro, Municipio Oruro, Provincia Cercado, Oruro, Bolivia"
"Vlotho, Germany",52.1664861,8.8619172,"Vlotho, Kreis Herford, Nordrhein-Westfalen, 32602, Deutschland"
"Voels, Austria",47.2523245,11.3279408,"Völs, Bezirk Innsbruck-Land, Tirol, 6176, Österreich"
"Vorniceni village, Republic of Moldova",47.1543982,28.427932,"Vorniceni, Raionul Strășeni, MD-3737, Moldova"
"Vuwani, South Africa",-26.00373929,28.19324132439843,"Vuwani Street, Johannesburg Ward 78, City of Johannesburg Metropolitan Municipality, Gauteng, 1632, South Africa"
"Wa,Ghana",10.0623261,-2.5054273,"Wa, Wa Municipal District, Upper West Region, Ghana"
"Wakiso,Uganda",0.3760928,32.456126539081936,"Wakiso, Central Region, Uganda"
"Wanaka, New Zealand",-44.6941691,169.1364637,"Wānaka, Queenstown-Lakes District, Otago, 9305, New Zealand / Aotearoa"
"Warri, Nigeria",5.5186186,5.7480196,"Warri, Delta, Nigeria"
"Washington D.C., USA",38.8950368,-77.0365427,"Washington, District of Columbia, United States"
West Bengal (IN),22.9964948,87.6855882,"West Bengal, India"
West Delhi,28.6545456,77.08105551,"West Delhi, Delhi, India"
"White River, South Africa",-25.326389,31.014444,"White River, Mbombela, Ehlanzeni, Mpumalanga, 1240, South Africa"
"Wilmington City, New Castle County, 19801, Delaware, United States",39.7478926,-75.54941333,"City Center Wilmington Parking, 208, West 12th Street, Midtown Brandywine, Wilmington, New Castle County, Delaware, 19801, United States"
Woodbridge,52.0941323,1.3199383,"Woodbridge, East Suffolk, Suffolk, England, United Kingdom"
Yaba,12.811960299999999,-2.884813151,"Yaba, Nayala, Boucle du Mouhoun, Burkina Faso"
"Yadgir, India",16.57441225,76.92544344576471,"Yadgir, Karnataka, India"
"Yamuna Nagar, India",19.1481254,72.827599,"Yamuna Nagar, K/W Ward, Zone 3, Mumbai Suburban, Maharashtra, 400053, India"
"Yaounde, Cameroon",3.8689867,11.5213344,"Communauté urbaine de Yaoundé, Mfoundi, Centre, Cameroun"
"Yenagoa Bayelsa State, Nigeria",4.9334651,6.2747786,"Yenegoa, Bayelsa, 569101, Nigeria"
"Yeruham, Israel",30.9888033,34.9250975,"ירוחם, נפת באר שבע, מחוז הדרום, ישראל"
"Zabalj, Serbia",45.3728199,20.0637917,"Жабаљ, Општина Жабаљ, Јужнобачки управни округ, Војводина, 21230, Србија"
zagazig/ Sharqia/ Egypt,30.5853431,31.5035127,"الزقازيق, الشرقية, 44512, مصر"
"Zanzibar, Tanzania",-6.1664908,39.2074312,"Zanzibar City مدينة زنجبار, Mjini, Unguja Mjini Magharibi, Zanzibar زنجبار, 71109, Tanzania"
"Zaria, Kaduna State, Nigeria",11.0248119,7.651853311586596,"Zaria, Kaduna, Nigeria"