location,latitude,longitude,address
"Abuja, Nigeria",9.0643305,7.4892974,"Abuja, Municipal Area Council, Federal Capital Territory, 223140, Nigeria"
"Accra, Ghana",5.5571096,-0.2012376,"Accra, Korle-Klottey Municipal District, Greater Accra Region, Ghana"
"Accra, Ghana",5.5571096,-0.2012376,"Accra, Korle-Klottey Municipal District, Greater Accra Region, Ghana"
"Addis Ababa, Ethiopia",9.0358287,38.7524127,"አዲስ አበባ / Addis Ababa, Arada, አዲስ አበባ Addis Ababa أديس أبابا, አዲስ አበባ أديس أبابا, 3578, ኢትዮጵያ إثيوبيا"
"Aden, Yemen",12.789585,45.028504,"مدينة عدن, محافظة عدن, اليمن"
"Ahilya Nagar, India",19.238013,76.2227154,"Ahilya Nagar, Majalgaon, Beed, Maharashtra, India"
"Ahmedabad, India",23.0215374,72.5800568,"Ahmedabad, Gujarat, 380001, India"
"Aizawl, India",23.7433532,92.7382756,"Aizawl, Tlangnuam, Aizawl, 796190, India"
"Akure, Nigeria",7.2525595,5.1932647,"Akure, Akure South, Ondo, 340021, Nigeria"
"Alameda, California",37.6090291,-121.899142,"Alameda County, California, United States"
"Albuquerque, New Mexico",35.0841034,-106.650985,"Albuquerque, Bernalillo County, New Mexico, United States"
"Alibaug, India",18.662743335320354,72.87877327785249,"Alibaug Rewas Road, Alibag, Alibag Taluka, Raigad, Maharashtra, 402200, India"
"Alibaug, India",18.662743335320354,72.87877327785249,"Alibaug Rewas Road, Alibag, Alibag Taluka, Raigad, Maharashtra, 402200, India"
"Amap√°, Brazil",-14.68512635,-39.17277107,"Fazenda Bom Pastor, headquarter of AMAP, Rio do Braço, Zona Lava Pes, Rio do Braço, Ilhéus, Região Geográfica Imediata de Ilhéus – Itabuna, Região Geográfica Intermediária de Ilhéus-Itabuna, Bahia, Região Nordeste, Brasil"
"Ambikapur, India",23.1226343,83.1981886,"امبیکاپور, Ambikapur Tahsil, Surguja, Chhattisgarh, India"
"Amman, Jordan",31.9515694,35.9239625,"عمان, ناحية عمان, لواء قصبة عمان, عمان, 11118, الأردن"
"Amsterdam, Netherlands",52.3730796,4.8924534,"Amsterdam, Noord-Holland, Nederland"
"Anambra, Nigeria",6.2183136,6.9531842,"Anambra, Nigeria"
"Anand, India",22.5586555,72.9627227,"Anand, Anand City Taluka, Anand, Gujarat, 388001, India"
"Antananarivo, Madagascar",-18.9100122,47.5255809,"Antananarivo, Analamanga, Province d’Antananarivo, 101, Madagasikara / Madagascar"
"Antananarivo, Madagascar",-18.9100122,47.5255809,"Antananarivo, Analamanga, Province d’Antananarivo, 101, Madagasikara / Madagascar"
"Arequipa, Peru",-16.3988667,-71.5369607,"Arequipa, Perú"
"Ariana, Tunisia",36.968573500000005,10.121985506329507,"ولاية أريانة, تونس"
"Arravali, India",,,
"Arusha, Tanzania",-3.3696827,36.6880794,"Arusha, Arusha Municipal, Arusha, Northern Zone, 23103, Tanzania"
"Ashanti, Ghana",6.8003319,-1.5188142,"Ashanti Region, Ghana"
"Bacoor, Philippines",14.458816,120.959579,"Bacoor, Cavite, Calabarzon, 4102, Pilipinas"
"Bagamoyo, Tanzania",-6.4422075,38.9062189,"Bagamoyo, Pwani, Coastal Zone, Tanzania"
Bahraich,27.734382250000003,81.47653998303304,"Bahraich, Uttar Pradesh, India"
"Bajo Baudó, Columbia",5.00181755,-77.15804531,"Bajo Baudó (Pizarro), Pacífico Sur, Chocó, RAP Pacífico, Colombia"
"Baku, Azerbaijan",40.3755885,49.8328009,"Bakı İnzibati Ərazisi, Azərbaycan"
"Balasore, India",21.5006421,86.919884,"Balasore, Station Road, Baleshwar, Baleshwar (M), Baleshwar, Odisha, 756001, India"
"Bamako, Mali",12.649319,-8.000337,"Bamako, Mali"
"Bamenda, Cameroon",5.9614117,10.1516505,"Communauté urbaine de Bamenda, Mezam, Northwest, Cameroun"
"Banaskantha, India",24.26939205,72.16202462,"Banaskantha, Gujarat, India"
"Banda Aceh, Indonesia",5.5528455,95.3192908,"Banda Aceh, Aceh, Sumatera, Indonesia"
"Bangalore, India",12.98815675,77.62260004,"Bengaluru, Bangalore North, Bengaluru Urban, Karnataka, India"
"Bangalore, India",12.98815675,77.62260004,"Bengaluru, Bangalore North, Bengaluru Urban, Karnataka, India"
"Bangalore, India",12.98815675,77.62260004,"Bengaluru, Bangalore North, Bengaluru Urban, Karnataka, India"
"Bangkok, Thailand",13.7524938,100.4935089,"กรุงเทพมหานคร, ประเทศไทย"
Bangladesh,24.4769288,90.2934413,বাংলাদেশ
"Barcelona, Spain",41.3828939,2.1774322,"Barcelona, Barcelonès, Barcelona, Catalunya, España"
"Baringo County, Kenya",0.4926332,35.7416031,"Vision Fund Kenya, Kabarnet Road, Kabarnet, Baringo Central, Baringo, Rift Valley, 30400, Kenya"
"Basel, Switzerland",47.5581077,7.5878261,"Basel, Basel-Stadt, Schweiz/Suisse/Svizzera/Svizra"
"Bauchi, Nigeria",10.6228284,10.0287754,"Bauchi, Nigeria"
"Bedford, United Kingdom",52.1363806,-0.4675041,"Bedford, England, MK40 1SU, United Kingdom"
"Beijing, China",40.190632,116.412144,"北京市, 中国"
"Belem, Brazil",-1.45056,-48.4682453,"Belém, Região Geográfica Imediata de Belém, Região Geográfica Intermediária de Belém, Pará, Região Norte, Brasil"
"Belo Horizonte, Brazil",-19.9227318,-43.9450948,"Belo Horizonte, Região Geográfica Imediata de Belo Horizonte, Região Metropolitana de Belo Horizonte, Região Geográfica Intermediária de Belo Horizonte, Minas Gerais, Região Sudeste, Brasil"
"Beloit, Wisconsin",42.5083272,-89.031784,"Beloit, Rock County, Wisconsin, United States"
"Bengaluru, India",12.98815675,77.62260004,"Bengaluru, Bangalore North, Bengaluru Urban, Karnataka, India"
"Benin City, Nigeria",6.3330586,5.6221058,"Benin City, Oredo, Edo, 300241, Nigeria"
"Berekum, Ghana",7.450473,-2.5824981,"Berekum, Berekum East Municipal District, Bono Region, Ghana"
"Berlin, Germany",52.510885,13.3989367,"Berlin, Deutschland"
"Bhajanpura, North East Delhi, India",28.7009399,77.2617817,"Bhajanpura, Seelam Pur Tehsil, North East Delhi, Delhi, 110053, India"
"Bharuch, India",21.7080427,72.9956936,"Bharuch, Bharuch Taluka, Bharuch, Gujarat, India"
"Bharuch, India",21.7080427,72.9956936,"Bharuch, Bharuch Taluka, Bharuch, Gujarat, India"
"Bhopal, India",23.2584857,77.401989,"Bhopal, Huzur Tahsil, Bhopal, Madhya Pradesh, 462001, India"
"Bialystok, Poland",53.132398,23.1591679,"Białystok, województwo podlaskie, Polska"
"Bidar, India",18.02072965,77.24872035766641,"Bidar, Karnataka, India"
"Bikaner, Rajasthan, India",28.0159286,73.3171367,"Bikaner, Bikaner Tehsil, Bikaner, Rajasthan, 334001, India"
"Bilaspur, India",22.1638486,82.13659231724193,"Bilaspur, Chhattisgarh, India"
Chile,-31.7613365,-71.3187697,Chile
"Blantyre, Malawi",-15.7862543,35.0035694,"Blantyre, Southern Region, Malawi"
"Boa Vista, Brazil",2.8208478,-60.6719582,"Boa Vista, Região Geográfica Imediata de Boa Vista, Região Geográfica Intermediária de Boa Vista, Roraima, Região Norte, Brasil"
"BOALI, Central African Republic",4.8089514,18.1140203,"Boali, Ombella M'Poko, Ködörösêse tî Bêafrîka / République centrafricaine"
"Bogor, Indonesia",-6.5962986,106.7972421,"Bogor, Jawa Barat, Jawa, Indonesia"
"Bogotá, Colombia",4.6533816,-74.0836333,"Bogotá, Bogotá, Distrito Capital, RAP (Especial) Central, Colombia"
"Bom Jesus, Brazil",-28.6692723,-50.4346894,"Bom Jesus, Região Geográfica Imediata de Vacaria, Região Geográfica Intermediária de Caxias do Sul, Rio Grande do Sul, Região Sul, Brasil"
"Bonn, Germany",50.7352621,7.1024635,"Bonn, Nordrhein-Westfalen, Deutschland"
"Bono East Region, Ghana",7.8035236,-1.0876492,"Bono East Region, Ghana"
"Boulder, Colorado",40.0149856,-105.270545,"Boulder, Boulder County, Colorado, United States"
"Brasília, Brazil",-10.3333333,-53.2,Brasil
Brazil do Sul,-29.8425284,-53.7680577,"Rio Grande do Sul, Região Sul, Brasil"
"Brazzaville, Congo",-4.2694407,15.2712256,"Brazzaville (commune), Brazzaville (département), Congo"
"Brejo da Madre de Deus, Brazil",-8.1409718,-36.3712527,"Brejo da Madre de Deus, Região Geográfica Imediata de Caruaru, Região Geográfica Intermediária de Caruaru, Pernambuco, Região Nordeste, 55170-000, Brasil"
"Brisbane, Australia",-27.4689682,153.0234991,"City of Brisbane, Queensland, Australia"
"Brooklyn, New York",40.6526006,-73.9497211,"Brooklyn, Kings County, City of New York, New York, United States"
"Bujumbura, Burundi",-3.3638125,29.3675028,"Bujumbura, Bujumbura Mairie, Burundi"
"Bukavu, DRC",-2.5055839,28.8594885,"Bukavu, Sud-Kivu, République démocratique du Congo"
"Bulandshahr, India",28.3874073,77.9743805,"Bulandshahr, Uttar Pradesh, India"
"Bundibugyo, Uganda",0.6605936,30.043100774015073,"Bundibugyo, Western Region, Uganda"
"Burari, India",30.5120408,78.045119,"Burari, Dhanaulti, Tehri Garhwal, Uttarakhand, India"
"Cairo, Egypt",30.0443879,31.2357257,"القاهرة, مصر"
"Cairo, Egypt",30.0443879,31.2357257,"القاهرة, مصر"
"Cairo, Egypt",30.0443879,31.2357257,"القاهرة, مصر"
"Cairo, Egypt",30.0443879,31.2357257,"القاهرة, مصر"
"Cairo, Egypt",30.0443879,31.2357257,"القاهرة, مصر"
"New York, USA",40.7127281,-74.0060152,"City of New York, New York, United States"
"Calabar, Nigeria",4.9795999,8.3373597,"Calabar, Calabar Municipal, Cross River, 540281, Nigeria"
"Calabar, Nigeria",4.9795999,8.3373597,"Calabar, Calabar Municipal, Cross River, 540281, Nigeria"
"Calabar, Nigeria",4.9795999,8.3373597,"Calabar, Calabar Municipal, Cross River, 540281, Nigeria"
"Calabar, Nigeria",4.9795999,8.3373597,"Calabar, Calabar Municipal, Cross River, 540281, Nigeria"
Cameroon,4.6125522,13.1535811,Cameroun
Cameroon,4.6125522,13.1535811,Cameroun
Cameroon,4.6125522,13.1535811,Cameroun
"Campos dos Goytacazes, Rio de Janeiro, Brasil.",-21.7546,-41.3242,"Campos dos Goytacazes, Região Geográfica Imediata de Campos dos Goytacazes, Região Geográfica Intermediária de Campos dos Goytacazes, Rio de Janeiro, Região Sudeste, Brasil"
"Canberra, Australia",-35.2975906,149.1012676,"Canberra, District of Canberra Central, Australian Capital Territory, 2601, Australia"
"Casablanca, Morocco",33.5738331,-7.6153131,"Casablanca ⵜⴰⴷⴷⴰⵔⵜ ⵜⵓⵎⵍⵉⵍⵜ الدار البيضاء, Pachalik de Casablanca باشوية الدار البيضاء, Préfecture de Casablanca عمالة الدار البيضاء, Casablanca-Settat ⵜⴰⴷⴷⴰⵔⵜ ⵜⵓⵎⵍⵉⵍⵜ-ⵙⵟⵟⴰⵜ الدار البيضاء-سطات, Maroc ⵍⵎⵖⵔⵉⴱ المغرب"
Caucaia-Cear√°,,,
"Cebu City, Philippines",10.2935639,123.9019209,"Cebu City, Central Visayas, Pilipinas"
"Ch√£ Preta, Brasil",-20.67443595,-40.50071661,"Banco do Brasil, Rua Joaquim da Silva Lima, Parque Areia Preta, Centro, Guarapari, Região Geográfica Imediata de Vitória, Região Metropolitana da Grande Vitória, Região Geográfica Intermediária de Vitória, Espírito Santo, Região Sudeste, 29200-260, Brasil"
"Chamble Village, Thane, India",,,
"Chandler, AZ",33.3062031,-111.841185,"Chandler, Maricopa County, Arizona, United States"
"Chennai, India",13.0836939,80.270186,"Chennai, Tamil Nadu, 600001, India"
"Chennai, India",13.0836939,80.270186,"Chennai, Tamil Nadu, 600001, India"
"Chennai, India",13.0836939,80.270186,"Chennai, Tamil Nadu, 600001, India"
"Chennai, India",13.0836939,80.270186,"Chennai, Tamil Nadu, 600001, India"
"Chennai, India",13.0836939,80.270186,"Chennai, Tamil Nadu, 600001, India"
"Chennai, India",13.0836939,80.270186,"Chennai, Tamil Nadu, 600001, India"
"Chennai, India",13.0836939,80.270186,"Chennai, Tamil Nadu, 600001, India"
"Chennai, India",13.0836939,80.270186,"Chennai, Tamil Nadu, 600001, India"
"Chennai, India",13.0836939,80.270186,"Chennai, Tamil Nadu, 600001, India"
"Cherry Hill, New Jersey",39.9348351,-75.0307264,"Cherry Hill Township, Camden County, New Jersey, United States"
"Chhatrapati Sambhajinagar, Maharashtra, India",19.877263,75.3390241,"Chhatrapati Sambhaji Nagar, Chhatrapati Sambhajinagar, Maharashtra, 431002, India"
"Chi√∫re Village, Cabo Delgado, Mozambique",,,
"Chicago, Illinois, United States",41.8755616,-87.6244212,"Chicago, Cook County, Illinois, United States"
"Chilanga, Zambia",-15.5587509,28.2754586,"Chilanga, Chilanga District, Lusaka Province, Zambia"
"Chirundu, Zambia",-16.031977,28.85148,"Chirundu, Chirundu District, Southern Province, Zambia"
"Rajasthan, India",26.8105777,73.7684549,"Rajasthan, India"
"City, Country.",49.6124294,6.1305758,"Country, Centre Neuberg, Ville-Haute, Luxembourg, Canton Luxembourg, 2613, Lëtzebuerg"
"Clearfield, USA",40.9908706,-78.4457422,"Clearfield County, Pennsylvania, United States"
"Cocalzinho de Goiás, Brazil",-15.7762854,-48.7730427,"Cocalzinho de Goiás, Região Geográfica Imediata de Águas Lindas de Goiás, Região Integrada de Desenvolvimento do Distrito Federal e Entorno, Região Geográfica Intermediária de Luziânia-Águas Lindas de Goiás, Goiás, Região Centro-Oeste, Brasil"
"Cocalzinho de Goiás, Brazil",-15.7762854,-48.7730427,"Cocalzinho de Goiás, Região Geográfica Imediata de Águas Lindas de Goiás, Região Integrada de Desenvolvimento do Distrito Federal e Entorno, Região Geográfica Intermediária de Luziânia-Águas Lindas de Goiás, Goiás, Região Centro-Oeste, Brasil"
"Cockeysville, Maryland",39.483758800000004,-76.62351052,"Cockeysville, The Lakes, Baltimore County, Maryland, United States"
"Coimbatore, India",11.0018115,76.9628425,"Coimbatore, Coimbatore North, Coimbatore, Tamil Nadu, 641001, India"
Colombia,4.099917,-72.9088133,Colombia
Colombia,4.099917,-72.9088133,Colombia
"Colombo, Sri Lanka",6.9388614,79.8542005,"Colombo, Colombo District, Western Province, Sri Lanka"
"Concepci√≥n, Chile",,,
Congo,-2.9814344,23.8222636,République démocratique du Congo
Costa Rica,10.2735633,-84.0739102,Costa Rica
"Cotonou, Benin",6.3676953,2.4252507,"Cotonou, Littoral, Bénin"
"Cotonou, Benin",6.3676953,2.4252507,"Cotonou, Littoral, Bénin"
"Cottage Grove, Oregon",43.7974729,-123.058896,"Cottage Grove, Lane County, Oregon, 97424, United States"
"Coventry, United Kingdom",52.4081812,-1.510477,"Coventry, West Midlands, England, United Kingdom"
Cox's Bazar,21.176647099999997,92.00350503412564,"কক্সবাজার জেলা, চট্টগ্রাম বিভাগ, বাংলাদেশ"
Crestline,34.247549250000006,-117.2860371,"Crestline, San Bernardino County, California, 92322, United States"
"Cuddalore, India",11.52020705,79.33963564750636,"Cuddalore, Tamil Nadu, India"
"Cuetzalan del Progreso, Puebla, Mexico",20.027219199999998,-97.49385353,"Cuetzalan del Progreso, Puebla, México"
"Cuiabá, Brazil",-15.5986686,-56.0991301,"Cuiabá, Região Geográfica Imediata de Cuiabá, Região Metropolitana do Vale do Rio Cuiabá, Região Geográfica Intermediária de Cuiabá, Mato Grosso, Região Centro-Oeste, Brasil"
"Cuiabá, Brazil",-15.5986686,-56.0991301,"Cuiabá, Região Geográfica Imediata de Cuiabá, Região Metropolitana do Vale do Rio Cuiabá, Região Geográfica Intermediária de Cuiabá, Mato Grosso, Região Centro-Oeste, Brasil"
"Cuiabá, Brazil",-15.5986686,-56.0991301,"Cuiabá, Região Geográfica Imediata de Cuiabá, Região Metropolitana do Vale do Rio Cuiabá, Região Geográfica Intermediária de Cuiabá, Mato Grosso, Região Centro-Oeste, Brasil"
"Cuiabá, Brazil",-15.5986686,-56.0991301,"Cuiabá, Região Geográfica Imediata de Cuiabá, Região Metropolitana do Vale do Rio Cuiabá, Região Geográfica Intermediária de Cuiabá, Mato Grosso, Região Centro-Oeste, Brasil"
"Dakar, Senegal",14.693425,-17.447938,"Dakar, Région de Dakar, Sénégal"
"Dallas, TX",32.7762719,-96.7968559,"Dallas, Dallas County, Texas, United States"
"Dallas, TX",32.7762719,-96.7968559,"Dallas, Dallas County, Texas, United States"
Dar es Salaam,-6.8160837,39.2803583,"Dar es-Salaam, Coastal Zone, Tanzania"
Dar Es Salaam-Tanzania,-6.8160837,39.2803583,"Dar es-Salaam, Coastal Zone, Tanzania"
"Dar es Salaam, Tanzania",-6.8160837,39.2803583,"Dar es-Salaam, Coastal Zone, Tanzania"
"Dar es Salaam, Tanzania",-6.8160837,39.2803583,"Dar es-Salaam, Coastal Zone, Tanzania"
"Dar es Salaam, Tanzania",-6.8160837,39.2803583,"Dar es-Salaam, Coastal Zone, Tanzania"
"Dar es Salaam, Tanzania",-6.8160837,39.2803583,"Dar es-Salaam, Coastal Zone, Tanzania"
"Dar es Salaam, Tanzania",-6.8160837,39.2803583,"Dar es-Salaam, Coastal Zone, Tanzania"
"Dar es Salaam, Tanzania",-6.8160837,39.2803583,"Dar es-Salaam, Coastal Zone, Tanzania"
"Dar es Salaam, Tanzania",-6.8160837,39.2803583,"Dar es-Salaam, Coastal Zone, Tanzania"
"Dar-es-Salaam, Tanzania",-6.8160837,39.2803583,"Dar es-Salaam, Coastal Zone, Tanzania"
"Dar-es-Salaam, Tanzania",-6.8160837,39.2803583,"Dar es-Salaam, Coastal Zone, Tanzania"
"Dartford, Kent, UK",51.4443059,0.21807,"Dartford, Kent, England, United Kingdom"
"Dawsonville, GA",34.4212053,-84.1190804,"Dawsonville, Dawson County, Georgia, United States"
"Dehradun, India",30.3255646,78.0436813,"Dehradun, Uttarakhand, 248001, India"
"Dehradun, India",30.3255646,78.0436813,"Dehradun, Uttarakhand, 248001, India"
"Dehradun, India",30.3255646,78.0436813,"Dehradun, Uttarakhand, 248001, India"
"Dehradun, India",30.3255646,78.0436813,"Dehradun, Uttarakhand, 248001, India"
"Umburanas, Bahia",-10.728752,-41.3220445,"Umburanas, Região Geográfica Imediata de Jacobina, Região Geográfica Intermediária de Feira de Santana, Bahia, Região Nordeste, Brasil"
"Delhi, India",28.6273928,77.1716954,"Delhi, India"
"Delhi, India",28.6273928,77.1716954,"Delhi, India"
"Delhi, India",28.6273928,77.1716954,"Delhi, India"
"Delhi, India",28.6273928,77.1716954,"Delhi, India"
Delmas,18.5518464,-72.2920071,"Commune de Delmas, Arrondissement de Port-au-Prince, Département de l'Ouest, Ayiti"
"Deluun, Mongolia",47.7242703,90.67236025347819,"Дэлүүн ᠳᠡᠯᠢᠭᠦᠨ, Баян-Өлгий ᠪᠠᠶ᠋ᠠᠨ ᠥᠯᠦᠭᠡᠢ, Монгол улс ᠮᠤᠩᠭᠤᠯ ᠤᠯᠤᠰ"
Democratic Republic of Congo,-15.4139213,28.289698,"Embassy of the Democratic Republic Of Congo, Parirenyetwa Road, Fairview, Lusaka, Lusaka District, Lusaka Province, Zambia"
"Democratic Republic of Congo, South Kivu Province, Bukavu and Kabare Territory",,,
"Depresion Momposina, Colombia",,,
"Dhaka, Bangladesh",23.7643863,90.3890144,"ঢাকা, ঢাকা মহানগর, ঢাকা জেলা, ঢাকা বিভাগ, 1215, বাংলাদেশ"
"Dhaka, Bangladesh",23.7643863,90.3890144,"ঢাকা, ঢাকা মহানগর, ঢাকা জেলা, ঢাকা বিভাগ, 1215, বাংলাদেশ"
"Dhaka, Bangladesh",23.7643863,90.3890144,"ঢাকা, ঢাকা মহানগর, ঢাকা জেলা, ঢাকা বিভাগ, 1215, বাংলাদেশ"
"Dhaka, Bangladesh",23.7643863,90.3890144,"ঢাকা, ঢাকা মহানগর, ঢাকা জেলা, ঢাকা বিভাগ, 1215, বাংলাদেশ"
"Dhaka, Bangladesh",23.7643863,90.3890144,"ঢাকা, ঢাকা মহানগর, ঢাকা জেলা, ঢাকা বিভাগ, 1215, বাংলাদেশ"
"Dhaka, Bangladesh",23.7643863,90.3890144,"ঢাকা, ঢাকা মহানগর, ঢাকা জেলা, ঢাকা বিভাগ, 1215, বাংলাদেশ"
Dhamtari - Chhattisgarh,20.532625850000002,81.71559867809776,"Dhamtari, Chhattisgarh, India"
"Dharmapuri, India",12.14561305,78.11322171666458,"Dharmapuri, Tamil Nadu, India"
"Dhule, Maharashtra, India",21.1305215,74.49006143365727,"Dhule, Maharashtra, India"
"Diego Martin, Trinidad and Tobago",10.71385965,-61.57935551,"Diego Martin, Trinidad and Tobago"
"Dodoma, Tanzania",-6.1791181,35.7468174,"Dodoma, Dodoma City, Dodoma, Central Zone, Tanzania"
"Dodoma, Tanzania",-6.1791181,35.7468174,"Dodoma, Dodoma City, Dodoma, Central Zone, Tanzania"
"Dodoma, Tanzania",-6.1791181,35.7468174,"Dodoma, Dodoma City, Dodoma, Central Zone, Tanzania"
"Dodoma, Tanzania",-6.1791181,35.7468174,"Dodoma, Dodoma City, Dodoma, Central Zone, Tanzania"
"Dodoma, Tanzania",-6.1791181,35.7468174,"Dodoma, Dodoma City, Dodoma, Central Zone, Tanzania"
"Dodoma, Tanzania",-6.1791181,35.7468174,"Dodoma, Dodoma City, Dodoma, Central Zone, Tanzania"
"Douala, Cameroon",4.0429389,9.7062018,"Douala, Douala II, Communauté urbaine de Douala, Wouri, Littoral, Cameroun"
"Douala, Cameroon",4.0429389,9.7062018,"Douala, Douala II, Communauté urbaine de Douala, Wouri, Littoral, Cameroun"
Dourados - Mato Grosso do Sul - Brasil,-22.2206145,-54.812208,"Dourados, Região Geográfica Imediata de Dourados, Região Geográfica Intermediária de Dourados, Mato Grosso do Sul, Região Centro-Oeste, Brasil"
"Dowa, Malawi",-13.53875785,33.77810798,"Dowa, Central Region, Malawi"
"Dschang, Cameroon",5.4469923,10.053309,"Dschang, Menoua, Cameroun"
Duluth,46.7729322,-92.1251218,"Duluth, Saint Louis County, Minnesota, United States"
"Bihar, India",25.6440845,85.906508,"Bihar, India"
"Bihar, India",25.6440845,85.906508,"Bihar, India"
"Dunedin, USA",28.0116627,-82.7893788,"Dunedin, Pinellas County, Florida, 34698, United States"
Egypt,26.2540493,29.2675469,مصر
Egypt,26.2540493,29.2675469,مصر
"Ekiti State, Nigeria",7.736891,5.2738326,"Ekiti, Nigeria"
"Eldoret, Kenya",0.5198329,35.2715481,"Eldoret, Kimumu ward, Moiben, Uasin Gishu, Rift Valley, 30100, Kenya"
Embu Town,-0.892776171,37.22808273288474,"Embu-Nairobi Highway, Kambiti Town, Murang`a South, Murang`a, Central Kenya, Kenya"
"Enugu, Nigeria",6.4499833,7.5000007,"Enugu, Enugu North, Enugu, 400102, Nigeria"
"Enugu, Nigeria",6.4499833,7.5000007,"Enugu, Enugu North, Enugu, 400102, Nigeria"
"Enugu, Nigeria",6.4499833,7.5000007,"Enugu, Enugu North, Enugu, 400102, Nigeria"
"Enugu, Nigeria",6.4499833,7.5000007,"Enugu, Enugu North, Enugu, 400102, Nigeria"
"Fairbanks, Alaska, United States",64.837845,-147.716675,"Fairbanks, Fairbanks North Star Borough, Alaska, United States"
"Faridabad, Haryana",28.4031478,77.3105561,"Faridabad, Haryana, 121001, India"
"Faridabad, India",28.4031478,77.3105561,"Faridabad, Haryana, 121001, India"
"Federal Capital Territory, Abuja, Nigeria.",9.0805107,7.496900526205773,"Apostolic Nunciature, 541, Pope John Paul II Crescent, Maitama, Abuja, Municipal Area Council, Federal Capital Territory, 900271, Nigeria"
South Africa,-28.8166236,24.991639,South Africa
"Florianópolis, Brazil",-27.5973002,-48.5496098,"Florianópolis, Região Geográfica Imediata de Florianópolis, Região Geográfica Intermediária de Florianópolis, Santa Catarina, Região Sul, Brasil"
Fond Du Lac,43.7533414,-88.4493796,"Fond du Lac County, Wisconsin, United States"
"Formiga, Brazil",-20.4648425,-45.4266753,"Formiga, Região Geográfica Imediata de Formiga, Região Geográfica Intermediária de Divinópolis, Minas Gerais, Região Sudeste, Brasil"
"Fort Beaufort, South Africa",-32.7766075,26.6333138,"KwaMaqoma, Nkonkobe Local Municipality, Amathole District Municipality, Eastern Cape, 5720, South Africa"
"Fort Portal, Uganda",0.6561907,30.2779432,"Fort Portal City, Western Region, Uganda"
"Fort Portal, Uganda",0.6561907,30.2779432,"Fort Portal City, Western Region, Uganda"
"Fort Portal, Uganda",0.6561907,30.2779432,"Fort Portal City, Western Region, Uganda"
"Fortaleza, Brazil",-3.7304512,-38.5217989,"Fortaleza, Região Geográfica Imediata de Fortaleza, Região Geográfica Intermediária de Fortaleza, Ceará, Região Nordeste, Brasil"
"Freetown, Sierra Leone",8.479004,-13.26795,"Freetown, Western Area Urban, Western Area, Sierra Leone"
"Freetown, Sierra Leone",8.479004,-13.26795,"Freetown, Western Area Urban, Western Area, Sierra Leone"
"Freetown, Sierra Leone",8.479004,-13.26795,"Freetown, Western Area Urban, Western Area, Sierra Leone"
"Freetown, Sierra Leone",8.479004,-13.26795,"Freetown, Western Area Urban, Western Area, Sierra Leone"
Gaborone,-24.6581357,25.9088474,"Gaborone, Botswana"
"Gaborone, Botswana",-24.6581357,25.9088474,"Gaborone, Botswana"
Gainesville,29.6519684,-82.3249846,"Gainesville, Alachua County, Florida, United States"
"Gandhinagar, Gujarat",23.2232877,72.6492267,"Gandhinagar, Gandhinagar Taluka, Gandhinagar, Gujarat, India"
"Garnett, Kansas",38.2805772,-95.2419192,"Garnett, Anderson County, Kansas, United States"
Garowe,8.406143,48.483195,"Garoowe غاروي, Garowe غاروي, Nugaal نوجال, Puntland أرض البنط, Soomaaliya الصومال"
Gasabo,-1.9523076,30.1704795,"Gasabo, Akarere ka Gasabo, Umujyi wa Kigali, Rwanda"
"Geita, Tanzania",-3.1865265,32.0855702,"Geita, Lake Zone, Tanzania"
"George, South Africa",-33.9597212,22.4587148,"Garden Route District Municipality, Western Cape, South Africa"
Ghana,8.0300284,-1.0800271,Ghana
Ghana,8.0300284,-1.0800271,Ghana
Ghana,8.0300284,-1.0800271,Ghana
"Ghaziabad, India",28.7749966,77.45869671,"Ghaziabad, Uttar Pradesh, India"
"Ghaziabad, India",28.7749966,77.45869671,"Ghaziabad, Uttar Pradesh, India"
"Ghaziabad, Uttar Pradesh",28.7749966,77.45869671,"Ghaziabad, Uttar Pradesh, India"
"Ghaziabad, Uttar Pradesh, India",28.7749966,77.45869671,"Ghaziabad, Uttar Pradesh, India"
"Gitega, Burundi",-3.4284953,29.9249718,"Gitega, Burundi"
"Goma, Democratic Republic of the Congo",-1.6665685,29.225652,"Goma, Nord-Kivu, République démocratique du Congo"
"Goma, Democratic Republic of the Congo",-1.6665685,29.225652,"Goma, Nord-Kivu, République démocratique du Congo"
"Goma, Democratic Republic of the Congo",-1.6665685,29.225652,"Goma, Nord-Kivu, République démocratique du Congo"
"Goma, Democratic Republic of the Congo",-1.6665685,29.225652,"Goma, Nord-Kivu, République démocratique du Congo"
"Goma, Democratic Republic of the Congo",-1.6665685,29.225652,"Goma, Nord-Kivu, République démocratique du Congo"
"Goma, Democratic Republic of the Congo",-1.6665685,29.225652,"Goma, Nord-Kivu, République démocratique du Congo"
"Goma, Democratic Republic of the Congo",-1.6665685,29.225652,"Goma, Nord-Kivu, République démocratique du Congo"
"Gombe State, Nigeria",10.430401849999999,11.206540782332173,"Gombe, Nigeria"
"Gomia, Jharkhand",23.813892,85.8240995,"IEL Gomia, Gumia, Bokaro, Jharkhand, 829112, India"
"Gorakhpur, Uttar Pradesh, India",26.6677977,83.36423338,"Gorakhpur, Uttar Pradesh, India"
"Greater Accra, Ghana",5.8101532,0.0995242,"Greater Accra Region, Ghana"
"Greater Accra, Ghana",5.8101532,0.0995242,"Greater Accra Region, Ghana"
"Greenbelt, Maryland",38.9933654,-76.88333238,"Greenbelt, Campus Drive, Yarrow, College Park, Prince George's County, Maryland, 20740, United States"
Greensboro,36.0726355,-79.7919754,"Greensboro, Guilford County, North Carolina, United States"
Greensboro,36.0726355,-79.7919754,"Greensboro, Guilford County, North Carolina, United States"
Guinea,10.7226226,-10.7083587,Guinée
"Gujarat, India",22.3850051,71.745261,"Gujarat, India"
"Gujarat, India",22.3850051,71.745261,"Gujarat, India"
"Gujarat, India",22.3850051,71.745261,"Gujarat, India"
"Gujarat, India",22.3850051,71.745261,"Gujarat, India"
"Gumla district, Jharkhand, India",23.1603759,84.45995652080032,"Gumla, Jharkhand, India"
"Guntur, India",16.2915189,80.4541588,"Guntur, Andhra Pradesh, 522001, India"
Gurgaon,28.4646148,77.0299194,"Gurugram, Haryana, India"
"Gurugram, India",28.4646148,77.0299194,"Gurugram, Haryana, India"
"Gurugram, India",28.4646148,77.0299194,"Gurugram, Haryana, India"
"Gurugram, India",28.4646148,77.0299194,"Gurugram, Haryana, India"
"Gurugram, India",28.4646148,77.0299194,"Gurugram, Haryana, India"
"Gurugram, India",28.4646148,77.0299194,"Gurugram, Haryana, India"
"Guwahati, Assam",26.1805978,91.753943,"Guwahati, Kamrup Metropolitan, Assam, 781015, India"
"Guwahati, Assam",26.1805978,91.753943,"Guwahati, Kamrup Metropolitan, Assam, 781015, India"
"Gweru, Zimbabwe",-19.4616316,29.8205953,"Gweru, Midlands, Zimbabwe"
Haiti,19.1399952,-72.3570972,Ayiti
"Harare, Zimbabwe",-17.8567035,31.0601584,"Harare Province, Zimbabwe"
"Harare, Zimbabwe",-17.8567035,31.0601584,"Harare Province, Zimbabwe"
"Harare, Zimbabwe",-17.8567035,31.0601584,"Harare Province, Zimbabwe"
"Harare, Zimbabwe",-17.8567035,31.0601584,"Harare Province, Zimbabwe"
"Harare, Zimbabwe",-17.8567035,31.0601584,"Harare Province, Zimbabwe"
"Harare, Zimbabwe",-17.8567035,31.0601584,"Harare Province, Zimbabwe"
"Haryana, India",29,76,"Haryana, India"
"Haryana, India",29,76,"Haryana, India"
"Henderson, Nevada",36.0319843,-114.9822486,"Henderson, Clark County, Nevada, United States"
"Ho Chi Minh, Vietnam",10.7763897,106.7011391,"Thành phố Hồ Chí Minh, Việt Nam"
"Ho Chi Minh, Vietnam",10.7763897,106.7011391,"Thành phố Hồ Chí Minh, Việt Nam"
Homa Bay,-0.56396015,34.31878185590796,"Homa Bay, Nyanza, Kenya"
"Houston, TX",29.7589382,-95.3676974,"Houston, Harris County, Texas, United States"
"Houston, TX",29.7589382,-95.3676974,"Houston, Harris County, Texas, United States"
"Houston, TX",29.7589382,-95.3676974,"Houston, Harris County, Texas, United States"
Hpa An,16.8902634,97.6362745,"ဘားအံ, ဘားအံခရိုင်, ကရင်ပြည်နယ်, 10311, မြန်မာ"
"Hyderabad, India",17.360589,78.4740613,"Hyderabad, Bahadurpura mandal, Hyderabad, Telangana, India"
"Hyderabad, Sindh, Pakistan",25.4075358,68.36134563257718,"حیدرآباد, ضلع حیدرآباد, حیدر آباد ڈویژن, سندھ, پاکستان"
"Igabi Local Government, Nigeria",,,
"Igreja Nova, Alagoas, Brazil",-10.1267244,-36.658151,"Igreja Nova, Região Geográfica Imediata de Penedo, Região Geográfica Intermediária de Maceió, Alagoas, Região Nordeste, Brasil"
"Ilford, United Kingdom",51.5582734,0.0711669,"Ilford, Greater London, England, IG1 1DL, United Kingdom"
India,22.3511148,78.6677428,India
India,22.3511148,78.6677428,India
India,22.3511148,78.6677428,India
India,22.3511148,78.6677428,India
India,22.3511148,78.6677428,India
India,22.3511148,78.6677428,India
India,22.3511148,78.6677428,India
India,22.3511148,78.6677428,India
India,22.3511148,78.6677428,India
"Indore, India",22.7203616,75.8681996,"Indore, Juni Indore Tahsil, Indore, Madhya Pradesh, 452001, India"
"Indore, Madhya Pradesh",22.7203616,75.8681996,"Indore, Juni Indore Tahsil, Indore, Madhya Pradesh, 452001, India"
Iowa City,41.6612561,-91.5299106,"Iowa City, Johnson County, Iowa, United States"
"Iranduba, Amazonas, Brasil",-3.2758203,-60.1867429,"Iranduba, Região Geográfica Imediata de Manaus, Região Geográfica Intermediária de Manaus, Amazonas, Região Norte, Brasil"
Iraq,33.0955793,44.1749775,العراق
Iseyin,7.9710106,3.5956141,"Ìsẹ́yìn, Oyo, Nigeria"
"Islamabad, Pakistan",33.6938118,73.0651511,"اسلام آباد, زون 1, وفاقی دارالحکومت اسلام آباد, 44000, پاکستان"
"Islamabad, Pakistan",33.6938118,73.0651511,"اسلام آباد, زون 1, وفاقی دارالحکومت اسلام آباد, 44000, پاکستان"
Itapetininga,-23.588607,-48.048326,"Itapetininga, Região Imediata de Itapetininga, Região Metropolitana de Sorocaba, Região Geográfica Intermediária de Sorocaba, São Paulo, Região Sudeste, Brasil"
Itapetininga,-23.588607,-48.048326,"Itapetininga, Região Imediata de Itapetininga, Região Metropolitana de Sorocaba, Região Geográfica Intermediária de Sorocaba, São Paulo, Região Sudeste, Brasil"
Itapetininga,-23.588607,-48.048326,"Itapetininga, Região Imediata de Itapetininga, Região Metropolitana de Sorocaba, Região Geográfica Intermediária de Sorocaba, São Paulo, Região Sudeste, Brasil"
"Itatira, Cear√°, Brasil",,,
"Jabalpur, India",23.1701522,79.9324505,"Jabalpur, Ranjhi Tahsil, Jabalpur, Madhya Pradesh, India"
Jacmel,18.2352587,-72.5375127,"Jacmel, Commune Jacmel, Arrondissement de Jacmel, Département du Sud-Est, 9110, Ayiti"
"Jaipur, India",26.9154576,75.8189817,"Jaipur, Jaipur Municipal Corporation, Jaipur Tehsil, Jaipur, Rajasthan, 302001, India"
"Jaipur, India",26.9154576,75.8189817,"Jaipur, Jaipur Municipal Corporation, Jaipur Tehsil, Jaipur, Rajasthan, 302001, India"
"Jaipur, India",26.9154576,75.8189817,"Jaipur, Jaipur Municipal Corporation, Jaipur Tehsil, Jaipur, Rajasthan, 302001, India"
"Jaipur, India",26.9154576,75.8189817,"Jaipur, Jaipur Municipal Corporation, Jaipur Tehsil, Jaipur, Rajasthan, 302001, India"
"Jaipur, India",26.9154576,75.8189817,"Jaipur, Jaipur Municipal Corporation, Jaipur Tehsil, Jaipur, Rajasthan, 302001, India"
"Jaipur, India",26.9154576,75.8189817,"Jaipur, Jaipur Municipal Corporation, Jaipur Tehsil, Jaipur, Rajasthan, 302001, India"
"Jakarta, Indonesia",-6.1754049,106.827168,"Daerah Khusus ibukota Jakarta, Jawa, Indonesia"
"Jakarta, Indonesia",-6.1754049,106.827168,"Daerah Khusus ibukota Jakarta, Jawa, Indonesia"
"Jakarta, Indonesia",-6.1754049,106.827168,"Daerah Khusus ibukota Jakarta, Jawa, Indonesia"
"Jakarta, Indonesia",-6.1754049,106.827168,"Daerah Khusus ibukota Jakarta, Jawa, Indonesia"
"Jakarta, Indonesia",-6.1754049,106.827168,"Daerah Khusus ibukota Jakarta, Jawa, Indonesia"
"Jakarta, Indonesia",-6.1754049,106.827168,"Daerah Khusus ibukota Jakarta, Jawa, Indonesia"
"Jakarta, Indonesia",-6.1754049,106.827168,"Daerah Khusus ibukota Jakarta, Jawa, Indonesia"
"Jammu and Kashmir, India",33.6649297,75.1629584,"Jammu and Kashmir, India"
"Jamnagar, Gujarat",22.4732415,70.0552102,"Jamnagar, Jamnagar City Taluka, Jamnagar, Gujarat, India"
"Jamnagar, India",22.4732415,70.0552102,"Jamnagar, Jamnagar City Taluka, Jamnagar, Gujarat, India"
Jharkhand,23.4559809,85.2557301,"Jharkhand, India"
Jimeta-Yola,9.213442223882156,12.464542908609742,"Ganye - Jimeta Federal Road, Yola, Yola North, Adamawa, Nigeria"
"Jinja City, Uganda",0.4353036,33.2055568,"Jinja City, Eastern Region, Uganda"
"Jinja City, Uganda",0.4353036,33.2055568,"Jinja City, Eastern Region, Uganda"
"Jinja City, Uganda",0.4353036,33.2055568,"Jinja City, Eastern Region, Uganda"
"Jinja City, Uganda",0.4353036,33.2055568,"Jinja City, Eastern Region, Uganda"
"Jinja City, Uganda",0.4353036,33.2055568,"Jinja City, Eastern Region, Uganda"
"Jodhpur, Rajasthan",26.2967719,73.0351433,"Jodhpur, Jodhpur Tehsil, Jodhpur, Rajasthan, India"
"Johannesburg, South Africa",-26.205,28.049722,"Johannesburg, City of Johannesburg Metropolitan Municipality, Gauteng, 2001, South Africa"
"Johannesburg, South Africa",-26.205,28.049722,"Johannesburg, City of Johannesburg Metropolitan Municipality, Gauteng, 2001, South Africa"
"Johannesburg, South Africa",-26.205,28.049722,"Johannesburg, City of Johannesburg Metropolitan Municipality, Gauteng, 2001, South Africa"
"Johannesburg, South Africa",-26.205,28.049722,"Johannesburg, City of Johannesburg Metropolitan Municipality, Gauteng, 2001, South Africa"
"Addis Ababa, Ethiopia",9.0358287,38.7524127,"አዲስ አበባ / Addis Ababa, Arada, አዲስ አበባ Addis Ababa أديس أبابا, አዲስ አበባ أديس أبابا, 3578, ኢትዮጵያ إثيوبيا"
"Juba, South Sudan",4.8459246,31.5959173,"Juba City, Juba, Central Equatoria الاستوائية المركزية, South Sudan جنوب السودان"
"Juba, South Sudan",4.8459246,31.5959173,"Juba City, Juba, Central Equatoria الاستوائية المركزية, South Sudan جنوب السودان"
"Juba, South Sudan",4.8459246,31.5959173,"Juba City, Juba, Central Equatoria الاستوائية المركزية, South Sudan جنوب السودان"
Junagadh,21.5220416,70.4582458,"Junagadh, Junagadh City Taluka, Junagadh, Gujarat, 362015, India"
"Junagadh, Gujarat",21.5220416,70.4582458,"Junagadh, Junagadh City Taluka, Junagadh, Gujarat, 362015, India"
"Kabul, Afghanistan",34.5266431,69.1849082,"کابل, کابل ښاروالۍ, ولایت كابل, 1001, افغانستان"
"Kabul, Afghanistan",34.5266431,69.1849082,"کابل, کابل ښاروالۍ, ولایت كابل, 1001, افغانستان"
Kachchh,23.583333,70,"Kutch, Gujarat, India"
"Kaduna, Nigeria",10.5182899,7.4359863,"Kaduna, Kabala, Kaduna North, Kaduna, 800211, Nigeria"
"Kaduna, Nigeria",10.5182899,7.4359863,"Kaduna, Kabala, Kaduna North, Kaduna, 800211, Nigeria"
"Kailahun, Eastern Sierra Leone",8.2820297,-10.5551953,"Kailahun, Kailahun District, Eastern Province, Sierra Leone"
"Kailua Kona, Hawaii",19.641941,-155.996933,"Kailua, Hawaiʻi County, Hawaii, United States"
"Kakamega, Kenya",0.4957104,34.801548861634615,"Kakamega, Western, Kenya"
"Kakuma, Kenya",3.706286,34.873489,"Kakuma Town, Turkana, Rift Valley, Kenya"
"Kakuma, Kenya",3.706286,34.873489,"Kakuma Town, Turkana, Rift Valley, Kenya"
"Kalyan, India",19.2396742,73.1366482,"Kalyan, Kalyan-Dombivli, Kalyan Taluka, Thane, Maharashtra, India"
Kampala-Uganda,0.3177137,32.5813539,"Kampala Capital City, Kampala, Central Region, Uganda"
Kampala-Uganda,0.3177137,32.5813539,"Kampala Capital City, Kampala, Central Region, Uganda"
"Kampala, Uganda",0.3177137,32.5813539,"Kampala Capital City, Kampala, Central Region, Uganda"
"Kampala, Uganda",0.3177137,32.5813539,"Kampala Capital City, Kampala, Central Region, Uganda"
"Kampala, Uganda",0.3177137,32.5813539,"Kampala Capital City, Kampala, Central Region, Uganda"
"Kampala, Uganda",0.3177137,32.5813539,"Kampala Capital City, Kampala, Central Region, Uganda"
"Kampala, Uganda",0.3177137,32.5813539,"Kampala Capital City, Kampala, Central Region, Uganda"
"Kampala, Uganda",0.3177137,32.5813539,"Kampala Capital City, Kampala, Central Region, Uganda"
"Kampala, Uganda",0.3177137,32.5813539,"Kampala Capital City, Kampala, Central Region, Uganda"
"Kampala, Uganda",0.3177137,32.5813539,"Kampala Capital City, Kampala, Central Region, Uganda"
"Kampala, Uganda",0.3177137,32.5813539,"Kampala Capital City, Kampala, Central Region, Uganda"
"Kampala, Uganda",0.3177137,32.5813539,"Kampala Capital City, Kampala, Central Region, Uganda"
"Kampala, Uganda",0.3177137,32.5813539,"Kampala Capital City, Kampala, Central Region, Uganda"
"Kampala, Uganda",0.3177137,32.5813539,"Kampala Capital City, Kampala, Central Region, Uganda"
"Kampala, Uganda",0.3177137,32.5813539,"Kampala Capital City, Kampala, Central Region, Uganda"
"Kampala, Uganda",0.3177137,32.5813539,"Kampala Capital City, Kampala, Central Region, Uganda"
"Kampala, Uganda",0.3177137,32.5813539,"Kampala Capital City, Kampala, Central Region, Uganda"
"Kampala, Uganda",0.3177137,32.5813539,"Kampala Capital City, Kampala, Central Region, Uganda"
"Kampala, Uganda",0.3177137,32.5813539,"Kampala Capital City, Kampala, Central Region, Uganda"
"Kampala, Uganda",0.3177137,32.5813539,"Kampala Capital City, Kampala, Central Region, Uganda"
"Kampala, Uganda",0.3177137,32.5813539,"Kampala Capital City, Kampala, Central Region, Uganda"
"Kampala, Uganda",0.3177137,32.5813539,"Kampala Capital City, Kampala, Central Region, Uganda"
"Kampala, Uganda",0.3177137,32.5813539,"Kampala Capital City, Kampala, Central Region, Uganda"
"Kampala, Uganda",0.3177137,32.5813539,"Kampala Capital City, Kampala, Central Region, Uganda"
"Kampala, Uganda",0.3177137,32.5813539,"Kampala Capital City, Kampala, Central Region, Uganda"
"Kampala, Uganda",0.3177137,32.5813539,"Kampala Capital City, Kampala, Central Region, Uganda"
"Kampala, Uganda",0.3177137,32.5813539,"Kampala Capital City, Kampala, Central Region, Uganda"
"Kampala, Uganda",0.3177137,32.5813539,"Kampala Capital City, Kampala, Central Region, Uganda"
"Kampala, Uganda",0.3177137,32.5813539,"Kampala Capital City, Kampala, Central Region, Uganda"
"Kanchipuram, Tamil Nadu, India",12.9647163,79.9839686,"Kanchipuram, Tamil Nadu, India"
"Kannur, India",11.8763836,75.3737973,"Kannur, Kerala, India"
"Kano State, Nigeria",11.8948389,8.5364136,"Kano, Nigeria"
"Kano State, Nigeria",11.8948389,8.5364136,"Kano, Nigeria"
"Kano, Nigeria",11.9939978,8.5219738,"Kano, Yakasai, Kano Municipal, Kano, 700271, Nigeria"
"Kapiri Mposhi, Zambia",-13.9695026,28.6787997,"Kapiri Mposhi, Kapiri Mposhi District, Central Province, Zambia"
"Karachi, Pakistan",24.8546842,67.0207055,"کراچی ڈویژن, سندھ, پاکستان"
Karnataka,14.5203896,75.7223521,"Karnataka, India"
Karnataka,14.5203896,75.7223521,"Karnataka, India"
Karnataka,14.5203896,75.7223521,"Karnataka, India"
"Karnataka, India",14.5203896,75.7223521,"Karnataka, India"
"Karuzi, Burundi",-3.1255377,30.0978347,"Karuzi, Burundi"
"Kasese, Uganda",0.1310412,30.00479684525631,"Kasese, Western Region, Uganda"
"Kasese, Uganda",0.1310412,30.00479684525631,"Kasese, Western Region, Uganda"
"Kasese, Uganda",0.1310412,30.00479684525631,"Kasese, Western Region, Uganda"
"Kasese, Uganda",0.1310412,30.00479684525631,"Kasese, Western Region, Uganda"
Kasoa,5.532573,-0.437491,"Kasoa, Gomoa East District, Central Region, Ghana"
Kasungu,-12.99248765,33.472356695915096,"Kasungu, Central Region, Malawi"
"Katavi, Tanzania",-6.3015493,30.9278274,"Katavi, Western Zone, Tanzania"
"Kathmandu, Nepal",27.708317,85.3205817,"काठमाडौँ महानगरपालिका, काठमाडौं, बागमती प्रदेश, नेपाल"
"Kathmandu, Nepal",27.708317,85.3205817,"काठमाडौँ महानगरपालिका, काठमाडौं, बागमती प्रदेश, नेपाल"
"Kathmandu, Nepal",27.708317,85.3205817,"काठमाडौँ महानगरपालिका, काठमाडौं, बागमती प्रदेश, नेपाल"
"Kathmandu, Nepal",27.708317,85.3205817,"काठमाडौँ महानगरपालिका, काठमाडौं, बागमती प्रदेश, नेपाल"
"Kathmandu, Nepal",27.708317,85.3205817,"काठमाडौँ महानगरपालिका, काठमाडौं, बागमती प्रदेश, नेपाल"
"Kathmandu, Nepal",27.708317,85.3205817,"काठमाडौँ महानगरपालिका, काठमाडौं, बागमती प्रदेश, नेपाल"
Katsina State,12.5630825,7.6207063,"Katsina, Nigeria"
"Katsina, Nigeria",12.5630825,7.6207063,"Katsina, Nigeria"
"Kent, United Kingdom",51.20707485,0.7210361813401444,"Kent, England, United Kingdom"
"Kent, Washington",47.3826903,-122.2270272,"Kent, King County, Washington, United States"
Kenya,1.4419683,38.4313975,Kenya
Kenya,1.4419683,38.4313975,Kenya
Kenya,1.4419683,38.4313975,Kenya
Kenya,1.4419683,38.4313975,Kenya
Kenya,1.4419683,38.4313975,Kenya
"Kesavadasupalem, Andhra Pradesh, India",16.3598157,81.7955795,"Kesavadasupalem, Sakhinetipalle, Dr. B. R. Ambedkar Konaseema, Andhra Pradesh, 533250, India"
"Keta, Ghana",5.9215688,0.9910728,"Keta, Keta Municipal District, Volta Region, VK-0033-1041, Ghana"
"Khulna, Bangladesh",22.9372087,89.2852741,"খুলনা বিভাগ, বাংলাদেশ"
"Khulna, Bangladesh",22.9372087,89.2852741,"খুলনা বিভাগ, বাংলাদেশ"
Kiambu,-1.03639505,36.843131163110776,"Kiambu, Central Kenya, Kenya"
Kiambu,-1.03639505,36.843131163110776,"Kiambu, Central Kenya, Kenya"
"Kiboga, Uganda",0.85925585,31.928348891802138,"Kiboga, Central Region, Uganda"
"Kigali, Rwanda",-1.8859597,30.1296751,"Umujyi wa Kigali, Rwanda"
"Kigali, Rwanda",-1.8859597,30.1296751,"Umujyi wa Kigali, Rwanda"
"Kigali, Rwanda",-1.8859597,30.1296751,"Umujyi wa Kigali, Rwanda"
"Kigali, Rwanda",-1.8859597,30.1296751,"Umujyi wa Kigali, Rwanda"
"Kigali, Rwanda",-1.8859597,30.1296751,"Umujyi wa Kigali, Rwanda"
"Kigali, Rwanda",-1.8859597,30.1296751,"Umujyi wa Kigali, Rwanda"
"Kigali, Rwanda",-1.8859597,30.1296751,"Umujyi wa Kigali, Rwanda"
"Kigali, Rwanda",-1.8859597,30.1296751,"Umujyi wa Kigali, Rwanda"
"Kigali, Rwanda",-1.8859597,30.1296751,"Umujyi wa Kigali, Rwanda"
"Kigali, Rwanda",-1.8859597,30.1296751,"Umujyi wa Kigali, Rwanda"
"Kigali, Rwanda",-1.8859597,30.1296751,"Umujyi wa Kigali, Rwanda"
"Kigali, Rwanda",-1.8859597,30.1296751,"Umujyi wa Kigali, Rwanda"
"Kigali, Rwanda",-1.8859597,30.1296751,"Umujyi wa Kigali, Rwanda"
"Kigali, Rwanda",-1.8859597,30.1296751,"Umujyi wa Kigali, Rwanda"
"Kigali, Rwanda",-1.8859597,30.1296751,"Umujyi wa Kigali, Rwanda"
"Kigali, Rwanda",-1.8859597,30.1296751,"Umujyi wa Kigali, Rwanda"
"Kigali, Rwanda",-1.8859597,30.1296751,"Umujyi wa Kigali, Rwanda"
"Kigali, Rwanda",-1.8859597,30.1296751,"Umujyi wa Kigali, Rwanda"
"Kigali, Rwanda",-1.8859597,30.1296751,"Umujyi wa Kigali, Rwanda"
"Kigali, Rwanda",-1.8859597,30.1296751,"Umujyi wa Kigali, Rwanda"
"Kigali, Rwanda",-1.8859597,30.1296751,"Umujyi wa Kigali, Rwanda"
"Kigali, Rwanda",-1.8859597,30.1296751,"Umujyi wa Kigali, Rwanda"
"Kigali, Rwanda",-1.8859597,30.1296751,"Umujyi wa Kigali, Rwanda"
"Kigoma, Tanzania",-4.5126571,30.0050533,"Kigoma, Western Zone, Tanzania"
"Kigoma, Tanzania",-4.5126571,30.0050533,"Kigoma, Western Zone, Tanzania"
"Kinshasa, DRC",-4.3196982,15.3424196,"Kinshasa, République démocratique du Congo"
"Kinshasa, R√©publique d√©mocratique du Congo",,,
"Kinshasa, DRC",-4.3196982,15.3424196,"Kinshasa, République démocratique du Congo"
Kinzaiga-Rutana,,,
"Kiserian, Kajiado North, Kenya",-1.4258317,36.685989,"kiserian oloolaiser water, Kiserian, Kajiado North, Kajiado, Rift Valley, Kenya"
"Kisii County, Kenya",-0.73894255,34.75398551201732,"Kisii, Nyanza, Kenya"
"Kisumu, Kenya",-0.1029109,34.7541761,"Kisumu, City of Kisumu, Kisumu, Nyanza, Kenya"
"Kisumu, Kenya",-0.1029109,34.7541761,"Kisumu, City of Kisumu, Kisumu, Nyanza, Kenya"
"Kitale, Kenya",1.018076,35.000236,"Kitale, Saboti, Trans Nzoia, Rift Valley, Kenya"
"Kochi, India",9.9679032,76.2444378,"Kochi, Ernakulam, Kerala, 682001, India"
"Bihar, India",25.6440845,85.906508,"Bihar, India"
"Kolhapur, India",16.7028412,74.2405329,"Kolhapur, Karvir, Kolhapur, Maharashtra, 416003, India"
"Kolkata, India",22.5726459,88.3638953,"Kolkata, West Bengal, India"
"Kolkata, India",22.5726459,88.3638953,"Kolkata, West Bengal, India"
"Kolkata, India",22.5726459,88.3638953,"Kolkata, West Bengal, India"
"Kolkata, West Bengal, India",22.5726459,88.3638953,"Kolkata, West Bengal, India"
"Kopargaon, Maharashtra, India",19.8370037,74.48291234,"Kopargaon, Ahmednagar, Maharashtra, India"
"Korba, Chattisgarh",22.5198217,82.63500285150224,"Korba, Chhattisgarh, India"
"Kota Kinabalu, Malaysia",5.9780066,116.0728988,"Kota Kinabalu, Bahagian Pantai Barat, Sabah, 88000, Malaysia"
"Kroonstad, South Africa",-27.6532701,27.235515,"Kroonstad, Moqhaka Local Municipality, Fezile Dabi District Municipality, Free State, 1499, South Africa"
"Kuala Lumpur, Malaysia",3.1526589,101.7022205,"Kuala Lumpur, Malaysia"
Kumasi,6.6985605,-1.6233086,"Kumasi, Kumasi Metropolitan District, Ashanti Region, Ghana"
Kumasi,6.6985605,-1.6233086,"Kumasi, Kumasi Metropolitan District, Ashanti Region, Ghana"
"Kumasi, Ghana",6.6985605,-1.6233086,"Kumasi, Kumasi Metropolitan District, Ashanti Region, Ghana"
"La Marque, Texas",29.3685674,-94.9713134,"La Marque, Galveston County, Texas, 77568, United States"
"Lafayette, Louisiana",30.2262187,-92.0178202,"Lafayette, Lafayette Parish, Louisiana, United States"
"Lagos, Nigeria",6.4550575,3.3941795,"Lagos, Lagos Island, Lagos, 100242, Nigeria"
"Lagos, Nigeria",6.4550575,3.3941795,"Lagos, Lagos Island, Lagos, 100242, Nigeria"
"Lagos, Nigeria",6.4550575,3.3941795,"Lagos, Lagos Island, Lagos, 100242, Nigeria"
"Lagos, Nigeria",6.4550575,3.3941795,"Lagos, Lagos Island, Lagos, 100242, Nigeria"
"Lagos, Nigeria",6.4550575,3.3941795,"Lagos, Lagos Island, Lagos, 100242, Nigeria"
"Lagos, Nigeria",6.4550575,3.3941795,"Lagos, Lagos Island, Lagos, 100242, Nigeria"
"Lagos, Nigeria",6.4550575,3.3941795,"Lagos, Lagos Island, Lagos, 100242, Nigeria"
"Lagos, Nigeria",6.4550575,3.3941795,"Lagos, Lagos Island, Lagos, 100242, Nigeria"
"Lagos, Nigeria",6.4550575,3.3941795,"Lagos, Lagos Island, Lagos, 100242, Nigeria"
"Lahore, Pakistan",31.5656822,74.3141829,"لاہور, تحصیل لاہور شہر, ضلع لاہور, لاہور ڈویژن, پنجاب, 54500, پاکستان"
"Lahore, Pakistan",31.5656822,74.3141829,"لاہور, تحصیل لاہور شہر, ضلع لاہور, لاہور ڈویژن, پنجاب, 54500, پاکستان"
Lambare,-25.3455354,-57.6261456,"Lambaré, Central, Región Oriental, Paraguay / Paraguái"
"Las Vegas, NV",36.2533896,-115.2794366,"Las Vegas, Clark County, Nevada, United States"
"Lausanne, Switzerland and Douala, Cameroon",,,
"León, Spain",42.5989995,-5.5682413,"León, Castilla y León, España"
Lihue,21.9769622,-159.3687721,"Līhuʻe, Kauaʻi County, Hawaii, 96766, United States"
"Lilongwe, Malawi",-13.9875107,33.768144,"Lilongwe, Central Region, Malawi"
"Lilongwe, Malawi",-13.9875107,33.768144,"Lilongwe, Central Region, Malawi"
"Lilongwe, Malawi",-13.9875107,33.768144,"Lilongwe, Central Region, Malawi"
"Lilongwe, Malawi",-13.9875107,33.768144,"Lilongwe, Central Region, Malawi"
"Lima, Peru",-12.0621065,-77.0365256,"Lima, Lima Metropolitana, Lima, 15083, Perú"
"Limbe, Cameroon",4.010289,9.207058,"Limbé, Limbé I, Communauté urbaine de Limbé, Fako, Southwest, Cameroun"
Lira,41.79954695,12.591271133206927,"Aeroporto di Roma-Ciampino, Via Carlo Simeoni, Municipio Roma VII, Roma, Roma Capitale, Lazio, 00043, Italia"
Lira,41.79954695,12.591271133206927,"Aeroporto di Roma-Ciampino, Via Carlo Simeoni, Municipio Roma VII, Roma, Roma Capitale, Lazio, 00043, Italia"
Lithia,37.4781901,-79.7514284,"Lithia, Botetourt County, Virginia, United States"
"Livingstone, Zambia",-17.853135,25.861429,"Livingstone, Livingstone District, Southern Province, Zambia"
"London, United Kingdom",51.4893335,-0.144055085,"London, Greater London, England, United Kingdom"
"London, United Kingdom",51.4893335,-0.144055085,"London, Greater London, England, United Kingdom"
"London, United Kingdom",51.4893335,-0.144055085,"London, Greater London, England, United Kingdom"
Londrina,-23.3112878,-51.1595023,"Londrina, Região Geográfica Imediata de Londrina, Região Geográfica Intermediária de Londrina, Paraná, Região Sul, Brasil"
"Los Angeles, United States",34.0536909,-118.242766,"Los Angeles, Los Angeles County, California, United States"
"Los Angeles, United States",34.0536909,-118.242766,"Los Angeles, Los Angeles County, California, United States"
"Los Angeles, United States",34.0536909,-118.242766,"Los Angeles, Los Angeles County, California, United States"
"Los Angeles, United States",34.0536909,-118.242766,"Los Angeles, Los Angeles County, California, United States"
"Los Angeles, United States",34.0536909,-118.242766,"Los Angeles, Los Angeles County, California, United States"
"Los Angeles, United States",34.0536909,-118.242766,"Los Angeles, Los Angeles County, California, United States"
"Los Angeles, United States",34.0536909,-118.242766,"Los Angeles, Los Angeles County, California, United States"
"Los Angeles, United States",34.0536909,-118.242766,"Los Angeles, Los Angeles County, California, United States"
"Los Angeles, United States",34.0536909,-118.242766,"Los Angeles, Los Angeles County, California, United States"
"Louisville, Kentucky",38.2542376,-85.759407,"Louisville, Jefferson County, Kentucky, United States"
"Lucknow, India",26.8381,80.9346001,"Lucknow, Uttar Pradesh, 226027, India"
"Lucknow, India",26.8381,80.9346001,"Lucknow, Uttar Pradesh, 226027, India"
"Lucknow, India",26.8381,80.9346001,"Lucknow, Uttar Pradesh, 226027, India"
"Lusaka, Zambia",-15.4163395,28.2818414,"Lusaka, Lusaka District, Lusaka Province, 10101, Zambia"
"Lusaka, Zambia",-15.4163395,28.2818414,"Lusaka, Lusaka District, Lusaka Province, 10101, Zambia"
"Lusaka, Zambia",-15.4163395,28.2818414,"Lusaka, Lusaka District, Lusaka Province, 10101, Zambia"
"Lusaka, Zambia",-15.4163395,28.2818414,"Lusaka, Lusaka District, Lusaka Province, 10101, Zambia"
"Lusaka, Zambia",-15.4163395,28.2818414,"Lusaka, Lusaka District, Lusaka Province, 10101, Zambia"
"Lusaka, Zambia",-15.4163395,28.2818414,"Lusaka, Lusaka District, Lusaka Province, 10101, Zambia"
Macap√°,1.8705573127709334,103.27918176025203,"Sungai Machap, Machap, Kluang, Johor, Malaysia"
Madagascar,-18.9249604,46.4416422,Madagasikara / Madagascar
"Madanapalli, Andhra Pradesh",17.2222578,81.2978196,"Madanapalli, Veeranna Palem, Buttayagudem, Eluru, Andhra Pradesh, 534448, India"
Madhya Pradesh,23.8143419,77.5340719,"Madhya Pradesh, India"
Madhya Pradesh,23.8143419,77.5340719,"Madhya Pradesh, India"
"Madre de Dios, Peru",-12,-70.25,"Madre de Dios, Perú"
"Maharashtra, India",18.9068356,75.6741579,"Maharashtra, India"
"Maharashtra, India",18.9068356,75.6741579,"Maharashtra, India"
"Maharashtra, India",18.9068356,75.6741579,"Maharashtra, India"
"Maharashtra, India",18.9068356,75.6741579,"Maharashtra, India"
"Maharashtra, India",18.9068356,75.6741579,"Maharashtra, India"
"Maharashtra, India",18.9068356,75.6741579,"Maharashtra, India"
"Maiduguri, Borno State, Nigeria",11.8395375,13.1536214,"Maiduguri, Borno, 600233, Nigeria"
"Maiduguri, Nigeria",11.8395375,13.1536214,"Maiduguri, Borno, 600233, Nigeria"
Makassar,-5.1342962,119.4124282,"Makassar, Sulawesi Selatan, Sulawesi, Indonesia"
"Makurdi, Nigeria",7.7312634,8.538425,"Markurdi, Benue, Nigeria"
"Malabo, Equatorial Guinea",3.741877,8.7740663,"Malabo, Bioko Norte, Región Insular, Guinea Ecuatorial"
"Malakal, South Sudan",9.5388487,31.6584168,"Malakal, Makal Shilluk Island, Malakal, Upper Nile أعالى النيل, South Sudan جنوب السودان"
"Malappuram, India",11.10684475,76.10995510466662,"Malappuram, Kerala, India"
Malaysia,4.5693754,102.2656823,Malaysia
Malindi,-6.1577281,39.196562398333526,"Malindi, Mjini, Unguja Mjini Magharibi, Zanzibar زنجبار, 71103, Tanzania"
"Manaus, Brazil",-3.1316333,-59.9825041,"Manaus, Região Geográfica Imediata de Manaus, Região Geográfica Intermediária de Manaus, Amazonas, Região Norte, 69000-000, Brasil"
"Manchester, United Kingdom",53.4794892,-2.2451148,"Manchester, Greater Manchester, England, United Kingdom"
"Manchester, United Kingdom",53.4794892,-2.2451148,"Manchester, Greater Manchester, England, United Kingdom"
Mandideep,23.093838,77.5114296,"Mandideep, NH46, Mandideep, Goharganj Tahsil, Raisen, Madhya Pradesh, 462046, India"
Manga/Centre-Sud,11.6673837,-1.0723972,"Manga, Zoundwéogo, Centre-Sud, Burkina Faso"
Mangalore,12.8698101,74.8430082,"Mangaluru, Mangaluru taluk, Dakshina Kannada, Karnataka, 575001, India"
"Mankayane, Eswatini",-26.6804367,31.0578928,"Mankayane, Inkhundla Ngwempisi, Manzini, Eswatini"
"Maputo, Mozambique",-25.966213,32.56745,"Cidade de Maputo, Zona Sul, Moçambique"
"Maputo, Mozambique",-25.966213,32.56745,"Cidade de Maputo, Zona Sul, Moçambique"
"Maputo, Mozambique",-25.966213,32.56745,"Cidade de Maputo, Zona Sul, Moçambique"
"Maputo, Mozambique.",-25.966213,32.56745,"Cidade de Maputo, Zona Sul, Moçambique"
"Mara, Tanzania",-1.6409527,33.8421608,"Mara, Lake Zone, Tanzania"
"Maralal, Kenya",1.1,36.7,"Maralal, Maralal ward, Samburu Central, Samburu, Rift Valley, Kenya"
"Marilla, Brazil",-16.3258065,-49.01453189,"Avenida Marilla, Lapa, Anápolis, Região Geográfica Imediata de Anápolis, Região Geográfica Intermediária de Goiânia, Goiás, Região Centro-Oeste, 75134-547, Brasil"
"Marondera, Zimbabwe",-18.190098,31.545542,"Marondera, Mashonaland East, Zimbabwe"
"Masaka City, Uganda",-0.3390264,31.7465839,"Masaka City, Central Region, Uganda"
"Masaka, Central Uganda",-0.483142,31.83188947,"Masaka, Central Region, Uganda"
"Maseru, Lesotho",-29.310054,27.478222,"Maseru, Ha Tsiu, Maseru District, 100, Lesotho"
"Maun, Botswana",-19.9860951,23.4224352,"Maun, North-West District, Botswana"
"Mazar-i-Sharif, Afghanistan",36.7090366,67.1114085,"مزار شريف, ولایت بلخ, 1701, افغانستان"
"Mbale, Uganda",0.9765705499999999,34.202186921889464,"Mbale, Eastern Region, Uganda"
"Mbale, Uganda",0.9765705499999999,34.202186921889464,"Mbale, Eastern Region, Uganda"
"Mbale, Uganda",0.9765705499999999,34.202186921889464,"Mbale, Eastern Region, Uganda"
"Mbale, Uganda",0.9765705499999999,34.202186921889464,"Mbale, Eastern Region, Uganda"
"Mbale, Uganda",0.9765705499999999,34.202186921889464,"Mbale, Eastern Region, Uganda"
"Mbarara City, Uganda",-0.6107896,30.6533181,"Mbarara City, Western Region, Uganda"
"Mbarara, Uganda",-0.4180848,30.573737377548046,"Mbarara, Western Region, Uganda"
"Mbarara, Uganda",-0.4180848,30.573737377548046,"Mbarara, Western Region, Uganda"
"Medellin, Colombia",6.269732449999999,-75.60255965,"Medellín, Valle de Aburrá, Antioquia, RAP del Agua y la Montaña, 0500, Colombia"
"Medellin, Colombia",6.269732449999999,-75.60255965,"Medellín, Valle de Aburrá, Antioquia, RAP del Agua y la Montaña, 0500, Colombia"
"Medellin, Colombia",6.269732449999999,-75.60255965,"Medellín, Valle de Aburrá, Antioquia, RAP del Agua y la Montaña, 0500, Colombia"
"Mekelle, Ethiopia",13.4966644,39.4768259,"Mekelle, ትግራይ تجراى, ኢትዮጵያ إثيوبيا"
"Melbourne, Australia",-37.8142454,144.9631732,"Melbourne, City of Melbourne, Victoria, Australia"
"Minna, Nigeria",9.6187093,6.5475752,"Minna, Chanchaga, Niger, 920101, Nigeria"
"Mira Road East, India",19.2948873,72.8678432,"India Bull Riders Motorcycle Club, A203, BALAJI ANNEX, RAMDEV PARK, MIRA ROAD EAST, Ramdev Park Road, Mira, Mira-Bhayander, Thane Taluka, Thane, Maharashtra, 401107, India"
Mizoram,23.2146169,92.8687612,"Mizoram, India"
"Mogadishu, Somalia",2.0349312,45.3419183,"Muqdisho مقديشو, Hamar Weyne حي حمروين, Banaadir بنادر, BN 09010, Soomaaliya الصومال"
"Mohali, India",30.7041168,76.7176885,"Mohali, Sahibzada Ajit Singh Nagar, Punjab, 160061, India"
"Molo sub-location, Nakuru County",,,
"ceará, Brazil",-5.3264703,-39.7156073,"Ceará, Região Nordeste, Brasil"
"Mombasa, Kenya",-4.05052,39.667169,"Mombasa, Mvita, Mombasa, Coast, 80100, Kenya"
"Mombasa, Kenya",-4.05052,39.667169,"Mombasa, Mvita, Mombasa, Coast, 80100, Kenya"
"Momela, Tanzania",,,
Monrovia,6.328034,-10.797788,"Monrovia, Greater Monrovia, Montserrado County, Liberia"
"Montes Claros, Minas Gerais, Brasil",-16.7495727,-43.8687268,"Montes Claros, Região Geográfica Imediata de Montes Claros, Região Geográfica Intermediária de Montes Claros, Minas Gerais, Região Sudeste, Brasil"
"Montes Claros, Minas Gerais, Brasil",-16.7495727,-43.8687268,"Montes Claros, Região Geográfica Imediata de Montes Claros, Região Geográfica Intermediária de Montes Claros, Minas Gerais, Região Sudeste, Brasil"
"Montreal, Canada",45.5031824,-73.5698065,"Montréal, Agglomération de Montréal, Montréal (région administrative), Québec, Canada"
"Ceará, Brazil",-5.3264703,-39.7156073,"Ceará, Região Nordeste, Brasil"
"Morbi, Gujarat",22.800395899999998,70.88623203876728,"Morbi, Gujarat, India"
"Morbi, Gujarat",22.800395899999998,70.88623203876728,"Morbi, Gujarat, India"
"Morelia, Michoacan, Mexico",19.6546004,-101.2623797,"Morelia, Michoacán, México"
"Morogoro, Tanzania",-7.0842931,37.4232686,"Morogoro, Coastal Zone, Tanzania"
"Morogoro, Tanzania",-7.0842931,37.4232686,"Morogoro, Coastal Zone, Tanzania"
"Morogoro, Tanzania",-7.0842931,37.4232686,"Morogoro, Coastal Zone, Tanzania"
"Morogoro, Tanzania",-7.0842931,37.4232686,"Morogoro, Coastal Zone, Tanzania"
"Maharashtra, India",18.9068356,75.6741579,"Maharashtra, India"
Mozambique,-19.302233,34.9144977,Moçambique
Malawi,-13.2687204,33.9301963,Malawi
"Mpumalanga, South Africa",-26.276849,30.1500153,"Mpumalanga, South Africa"
"Mtwara Region, Tanzania",-10.6990264,39.0217984,"Mtwara, Coastal Zone, Tanzania"
Muhanga,-2.04308755,29.71802273203935,"Muhanga, Akarere ka Muhanga, Amajvepfo, Rwanda"
"Muhanga, Rwanda",-2.04308755,29.71802273203935,"Muhanga, Akarere ka Muhanga, Amajvepfo, Rwanda"
Mukono,-0.0523245,32.72625575,"Mukono, Central Region, Uganda"
"Mukono Municipality, Uganda",0.35992625,32.746380823458324,"Mukono Municipality, Jinja - Kampala Road, Seeta, Mukono, Central Region, Uganda"
"Mumbai, India",19.054999,72.8692035,"Mumbai Suburban, Maharashtra, India"
"Mumbai, India",19.054999,72.8692035,"Mumbai Suburban, Maharashtra, India"
"Mumbai, India",19.054999,72.8692035,"Mumbai Suburban, Maharashtra, India"
"Mumbai, India",19.054999,72.8692035,"Mumbai Suburban, Maharashtra, India"
"Mumbai, India",19.054999,72.8692035,"Mumbai Suburban, Maharashtra, India"
"Mumbai, India",19.054999,72.8692035,"Mumbai Suburban, Maharashtra, India"
"Mumbai, India",19.054999,72.8692035,"Mumbai Suburban, Maharashtra, India"
"Mumbai, India",19.054999,72.8692035,"Mumbai Suburban, Maharashtra, India"
"Mumbai, India",19.054999,72.8692035,"Mumbai Suburban, Maharashtra, India"
"Mumbai, India",19.054999,72.8692035,"Mumbai Suburban, Maharashtra, India"
"Mumbwa, Zambia",-14.9850046,27.0613764,"Mumbwa, Mumbwa District, Central Province, Zambia"
"Murang'a, Kenya",-0.83170875,37.00492162779861,"Murang`a, Central Kenya, Kenya"
"Murhu, Jharkhand, India",22.9512605,85.28728896028491,"Murhu, Khunti, Jharkhand, 835216, India"
Musoma,-1.4998186,33.8083018,"Musoma, Musoma Municipal, Lake Zone, 31100, Tanzania"
"Mwanga, Tanzania",-3.68580625,37.60964586,"Mwanga, Kilimanjaro, Northern Zone, Tanzania"
Mwanza,-2.5196915,32.9014417,"Mwanza, Nyamagana, Mwanza, Lake Zone, 33214, Tanzania"
"Mwanza, Tanzania",-2.5196915,32.9014417,"Mwanza, Nyamagana, Mwanza, Lake Zone, 33214, Tanzania"
"Mysore, Karnataka, India",12.3051828,76.6553609,"Mysuru, Mysuru taluk, Mysuru, Karnataka, 570001, India"
"Mzuzu, Malawi",-11.4607518,34.0226422,"Mzuzu, Mzimba, Northern Region, Malawi"
Nablus City,32.2205316,35.2569374,"نابلس, منطقة أ, الضفة الغربية, Palestinian Territory"
Nablus City,32.2205316,35.2569374,"نابلس, منطقة أ, الضفة الغربية, Palestinian Territory"
"Nagpur, India",21.1498134,79.0820556,"Nagpur City, Nagpur Urban Taluka, Nagpur, Maharashtra, India"
"Nagpur, India",21.1498134,79.0820556,"Nagpur City, Nagpur Urban Taluka, Nagpur, Maharashtra, India"
"Nagpur, India",21.1498134,79.0820556,"Nagpur City, Nagpur Urban Taluka, Nagpur, Maharashtra, India"
"Nagpur, India",21.1498134,79.0820556,"Nagpur City, Nagpur Urban Taluka, Nagpur, Maharashtra, India"
"Nagpur, India",21.1498134,79.0820556,"Nagpur City, Nagpur Urban Taluka, Nagpur, Maharashtra, India"
"Nagpur, India",21.1498134,79.0820556,"Nagpur City, Nagpur Urban Taluka, Nagpur, Maharashtra, India"
"Nagpur, India",21.1498134,79.0820556,"Nagpur City, Nagpur Urban Taluka, Nagpur, Maharashtra, India"
"Nairobi, Kenya",-1.30261485,36.82884201813725,"Nairobi, Kenya"
"Nairobi, Kenya",-1.30261485,36.82884201813725,"Nairobi, Kenya"
"Nairobi, Kenya",-1.30261485,36.82884201813725,"Nairobi, Kenya"
"Nairobi, Kenya",-1.30261485,36.82884201813725,"Nairobi, Kenya"
"Nairobi, Kenya",-1.30261485,36.82884201813725,"Nairobi, Kenya"
"Nairobi, Kenya",-1.30261485,36.82884201813725,"Nairobi, Kenya"
"Nairobi, Kenya",-1.30261485,36.82884201813725,"Nairobi, Kenya"
"Nairobi, Kenya",-1.30261485,36.82884201813725,"Nairobi, Kenya"
"Nairobi, Kenya",-1.30261485,36.82884201813725,"Nairobi, Kenya"
"Nairobi, Kenya",-1.30261485,36.82884201813725,"Nairobi, Kenya"
"Nairobi, Kenya",-1.30261485,36.82884201813725,"Nairobi, Kenya"
"Nairobi, Kenya",-1.30261485,36.82884201813725,"Nairobi, Kenya"
"Nairobi, Kenya",-1.30261485,36.82884201813725,"Nairobi, Kenya"
"Nairobi, Kenya",-1.30261485,36.82884201813725,"Nairobi, Kenya"
"Nairobi, Kenya",-1.30261485,36.82884201813725,"Nairobi, Kenya"
"Nairobi, Kenya",-1.30261485,36.82884201813725,"Nairobi, Kenya"
"Nairobi, Kenya",-1.30261485,36.82884201813725,"Nairobi, Kenya"
"Nairobi, Kenya",-1.30261485,36.82884201813725,"Nairobi, Kenya"
"Nairobi, Kenya",-1.30261485,36.82884201813725,"Nairobi, Kenya"
"Nairobi, Kenya",-1.30261485,36.82884201813725,"Nairobi, Kenya"
"Nairobi, Kenya",-1.30261485,36.82884201813725,"Nairobi, Kenya"
"Nairobi, Kenya",-1.30261485,36.82884201813725,"Nairobi, Kenya"
"Nairobi, Kenya",-1.30261485,36.82884201813725,"Nairobi, Kenya"
"Nairobi, Kenya",-1.30261485,36.82884201813725,"Nairobi, Kenya"
"Nairobi, Kenya",-1.30261485,36.82884201813725,"Nairobi, Kenya"
"Nairobi, Kenya",-1.30261485,36.82884201813725,"Nairobi, Kenya"
"Nairobi, Kenya",-1.30261485,36.82884201813725,"Nairobi, Kenya"
"Nairobi, Kenya",-1.30261485,36.82884201813725,"Nairobi, Kenya"
"Nairobi, Kenya",-1.30261485,36.82884201813725,"Nairobi, Kenya"
"Nairobi, Kenya",-1.30261485,36.82884201813725,"Nairobi, Kenya"
"Nairobi, Kenya",-1.30261485,36.82884201813725,"Nairobi, Kenya"
"Nairobi, Kenya",-1.30261485,36.82884201813725,"Nairobi, Kenya"
"Nairobi, Kenya",-1.30261485,36.82884201813725,"Nairobi, Kenya"
"Nairobi, Kenya",-1.30261485,36.82884201813725,"Nairobi, Kenya"
"Nairobi, Kenya",-1.30261485,36.82884201813725,"Nairobi, Kenya"
"Nairobi, Kenya",-1.30261485,36.82884201813725,"Nairobi, Kenya"
"Nairobi, Kenya",-1.30261485,36.82884201813725,"Nairobi, Kenya"
"Nairobi, Kenya",-1.30261485,36.82884201813725,"Nairobi, Kenya"
"Nairobi, Kenya",-1.30261485,36.82884201813725,"Nairobi, Kenya"
"Nairobi, Kenya",-1.30261485,36.82884201813725,"Nairobi, Kenya"
"Nairobi, Kenya",-1.30261485,36.82884201813725,"Nairobi, Kenya"
"Nairobi, Kenya",-1.30261485,36.82884201813725,"Nairobi, Kenya"
"Nairobi, Kenya",-1.30261485,36.82884201813725,"Nairobi, Kenya"
"Nairobi, Kenya",-1.30261485,36.82884201813725,"Nairobi, Kenya"
"Nairobi, Kenya",-1.30261485,36.82884201813725,"Nairobi, Kenya"
"Nairobi, Kenya",-1.30261485,36.82884201813725,"Nairobi, Kenya"
"Nairobi, Kenya",-1.30261485,36.82884201813725,"Nairobi, Kenya"
"Nairobi, Kenya",-1.30261485,36.82884201813725,"Nairobi, Kenya"
"Nairobi, Kenya",-1.30261485,36.82884201813725,"Nairobi, Kenya"
"Nairobi, Kenya",-1.30261485,36.82884201813725,"Nairobi, Kenya"
"Nairobi, Kenya",-1.30261485,36.82884201813725,"Nairobi, Kenya"
"Nairobi, Kenya",-1.30261485,36.82884201813725,"Nairobi, Kenya"
"Nairobi, Kenya",-1.30261485,36.82884201813725,"Nairobi, Kenya"
"Nairobi, Kenya",-1.30261485,36.82884201813725,"Nairobi, Kenya"
"Nairobi, Kenya",-1.30261485,36.82884201813725,"Nairobi, Kenya"
"Nairobi, Kenya",-1.30261485,36.82884201813725,"Nairobi, Kenya"
"Nairobi, Kenya",-1.30261485,36.82884201813725,"Nairobi, Kenya"
"Nairobi, Kenya",-1.30261485,36.82884201813725,"Nairobi, Kenya"
"Nairobi, Kenya",-1.30261485,36.82884201813725,"Nairobi, Kenya"
"Nairobi, Kenya",-1.30261485,36.82884201813725,"Nairobi, Kenya"
"Nairobi, Kenya",-1.30261485,36.82884201813725,"Nairobi, Kenya"
"Nairobi, Kenya",-1.30261485,36.82884201813725,"Nairobi, Kenya"
"Nairobi, Kenya",-1.30261485,36.82884201813725,"Nairobi, Kenya"
"Nairobi, Kenya",-1.30261485,36.82884201813725,"Nairobi, Kenya"
"Nairobi, Kenya",-1.30261485,36.82884201813725,"Nairobi, Kenya"
"Nairobi, Kenya",-1.30261485,36.82884201813725,"Nairobi, Kenya"
"Nairobi, Kenya",-1.30261485,36.82884201813725,"Nairobi, Kenya"
"Nairobi, Kenya",-1.30261485,36.82884201813725,"Nairobi, Kenya"
"Nakuru, Kenya",-0.2802724,36.0712048,"Nakuru, Nakuru West, Nakuru, Rift Valley, 20100, Kenya"
"Nakuru, Kenya",-0.2802724,36.0712048,"Nakuru, Nakuru West, Nakuru, Rift Valley, 20100, Kenya"
"Nakuru, Kenya",-0.2802724,36.0712048,"Nakuru, Nakuru West, Nakuru, Rift Valley, 20100, Kenya"
"Namibia, Jordan",,,
"Nampula City, Mozambique",-15.1194063,39.2615886,"Nampula, Cidade de Nampula, Nampula, Zona Norte, Moçambique"
"Nandurbar City, Maharashtra, India",21.363778,74.2411418,"Nandurbar, Nandurbar Taluka, Nandurbar, Maharashtra, 425412, India"
"Nanyuki, Kenya",0.01403,37.074632,"Nanyuki, Laikipia East, Laikipia, Rift Valley, Kenya"
"Nasarawa state, Nigeria",8.4387868,8.2382849,"Nasarawa, Nigeria"
"Natitingou, Benin",10.3051511,1.3808554,"Natitingou, Atakora, Bénin"
"New Delhi, India",28.64308585,77.21926705734865,"New Delhi, Foot Over Bridge 1, Ram Nagar, New Delhi Railway Station, Delhi, Kotwali Tehsil, Central Delhi, Delhi, 110006, India"
"New Delhi, India",28.64308585,77.21926705734865,"New Delhi, Foot Over Bridge 1, Ram Nagar, New Delhi Railway Station, Delhi, Kotwali Tehsil, Central Delhi, Delhi, 110006, India"
"New Delhi, India",28.64308585,77.21926705734865,"New Delhi, Foot Over Bridge 1, Ram Nagar, New Delhi Railway Station, Delhi, Kotwali Tehsil, Central Delhi, Delhi, 110006, India"
"New Delhi, India",28.64308585,77.21926705734865,"New Delhi, Foot Over Bridge 1, Ram Nagar, New Delhi Railway Station, Delhi, Kotwali Tehsil, Central Delhi, Delhi, 110006, India"
"New Delhi, India",28.64308585,77.21926705734865,"New Delhi, Foot Over Bridge 1, Ram Nagar, New Delhi Railway Station, Delhi, Kotwali Tehsil, Central Delhi, Delhi, 110006, India"
"New York City, United States",40.7127281,-74.0060152,"City of New York, New York, United States"
Niamey,13.524834,2.109823,"Niamey, Niger"
Nigeria,9.6000359,7.9999721,Nigeria
Nigeria,9.6000359,7.9999721,Nigeria
Nigeria,9.6000359,7.9999721,Nigeria
Nigeria,9.6000359,7.9999721,Nigeria
Nigeria,9.6000359,7.9999721,Nigeria
"Nnadurbar, Maharashtra, India",,,
"Noida, India",28.5706333,77.3272147,"Noida, Dadri, Gautam Buddha Nagar, Uttar Pradesh, India"
"Norman, OK",35.2225717,-97.4394816,"Norman, Cleveland County, Oklahoma, United States"
"Moshav Amirim, Israel",,,
"Northern Bahr el Ghazal State, South Sudan",9,27,"Northern Bahr El Ghazal بحر الغزال الشمالى, South Sudan جنوب السودان"
"Nova Odessa - S√£o Paulo, Brazil",-22.7805746,-47.2993805,"Nova Odessa, Região Imediata de Campinas, Região Metropolitana de Campinas, Região Geográfica Intermediária de Campinas, São Paulo, Região Sudeste, Brasil"
"Nyagatare District, Rwanda",-1.2969715,30.366263385614786,"Nyagatare District, Iburasirasuba, Rwanda"
"Nyagatare District, Rwanda",-1.2969715,30.366263385614786,"Nyagatare District, Iburasirasuba, Rwanda"
"Nyeri, Kenya",-0.4192962,36.9517005,"Nyeri, Nyeri Central, Nyeri, Central Kenya, Kenya"
"Nyeri, Kenya",-0.4192962,36.9517005,"Nyeri, Nyeri Central, Nyeri, Central Kenya, Kenya"
"Oakland, CA",37.8044557,-122.271356,"Oakland, Alameda County, California, United States"
"Oakland, California, USA",37.8044557,-122.271356,"Oakland, Alameda County, California, United States"
"Odisha, India",20.5431241,84.6897321,"Odisha, India"
"Ogun, Nigeria",6.9788582,3.4389293,"Ogun, Nigeria"
"Omaha, USA",41.2587459,-95.9383758,"Omaha, Douglas County, Nebraska, United States"
"Onitsha, Nigeria",6.1461619,6.8019088,"Onitsha, Onitsha North, Anambra, 430231, Nigeria"
"Onitsha, Nigeria",6.1461619,6.8019088,"Onitsha, Onitsha North, Anambra, 430231, Nigeria"
"Onitsha, Nigeria",6.1461619,6.8019088,"Onitsha, Onitsha North, Anambra, 430231, Nigeria"
"Orissa, India",20.5431241,84.6897321,"Odisha, India"
"Orissa, India",20.5431241,84.6897321,"Odisha, India"
"Ota, Nigeria",7.95,4.8,"Ota, Boluwaduro, Osun, Nigeria"
"Owerri, Nigeria",5.489736,7.0341973,"Owerri, Owerri Municipal, Imo, 460242, Nigeria"
"PA, USA",40.9699889,-77.7278831,"Pennsylvania, United States"
"Pakke Kessang, Arunachal Pradesh",27.15828555,93.15615024389129,"Pakke-Kessang, Arunachal Pradesh, India"
Palghar,19.757249,73.09311986183509,"Palghar, Maharashtra, India"
"Pali, Rajasthan, India",25.45522105,73.41938896,"Pali, Rajasthan, India"
"Palmas, Brazil",-10.1837852,-48.3336423,"Palmas, Região Geográfica Imediata de Palmas, Região Geográfica Intermediária de Palmas, Tocantins, Região Norte, Brasil"
Palo Alto,37.4443293,-122.1598465,"Palo Alto, Santa Clara County, California, United States"
"Panipat, Haryana, India",29.3912753,76.9771675,"Panipat, Haryana, 132100, India"
"Parachute, Colorado",39.446422999999996,-108.0522672,"Parachute, Garfield County, Colorado, United States"
"Parbhani, India",19.29019805,76.60264434278307,"Parbhani, Maharashtra, India"
"Paris, France",48.8534951,2.3483915,"Paris, Île-de-France, France métropolitaine, France"
"Patan, India",23.773753,71.67985812598445,"Patan, Gujarat, India"
"Patna, India",25.6093239,85.1235252,"Patna, Patna Rural, Patna, Bihar, 800001, India"
"Pemba, Mozambique",-12.9735551,40.5215098,"Pemba, Cidade de Pemba, Cabo Delgado, Zona Norte, 3203, Moçambique"
"Perundurai, Tamil Nadu",11.2539029,77.6288316,"Perundurai, Perundurai R.S. - Arachalur Road, Kuttapalayam, Perundurai, Erode, Tamil Nadu, 638112, India"
"Petrópolis, Brazil",-22.5075743,-43.1785356,"Petrópolis, Região Geográfica Imediata de Petrópolis, Região Metropolitana do Rio de Janeiro, Região Geográfica Intermediária de Petrópolis, Rio de Janeiro, Região Sudeste, Brasil"
"Phoenix, AZ",33.4484367,-112.074141,"Phoenix, Maricopa County, Arizona, United States"
"Sao Paulo, Brazil",-23.5506507,-46.6333824,"São Paulo, Região Imediata de São Paulo, Região Metropolitana de São Paulo, Região Geográfica Intermediária de São Paulo, São Paulo, Região Sudeste, Brasil"
"Plainfield, NJ, USA",40.6201412,-74.4222416,"Plainfield, Union County, New Jersey, United States"
"Ponta Porã, Brasil",-22.5286917,-55.723426,"Ponta Porã, Região Geográfica Imediata de Ponta Porã, Região Geográfica Intermediária de Dourados, Mato Grosso do Sul, Região Centro-Oeste, Brasil"
"Portland, Oregon",45.5202471,-122.674194,"Portland, Multnomah County, Oregon, United States"
"Portland, Oregon, United States",45.5202471,-122.674194,"Portland, Multnomah County, Oregon, United States"
"Porto Seguro, Bahia, Brasil",-16.443473,-39.064251,"Porto Seguro, Região Geográfica Imediata de Eunápolis - Porto Seguro, Região Geográfica Intermediária de Ilhéus-Itabuna, Bahia, Região Nordeste, Brasil"
"Porto Velho, Brazil",-8.7494525,-63.8735438,"Porto Velho, Região Geográfica Imediata de Porto Velho, Região Geográfica Intermediária de Porto Velho, Rondônia, Região Norte, Brasil"
"Portsaid, Egypt",31.2678486,32.2691972,"Alsideek mosque portsaid - مسجد الصديق بورسعيد, شارع الدكتور مصطفى مشرفه, منطقة ايوب, الزهور, مساكن ٥٠٠٠, بورسعيد, 42615, مصر"
"Milan, Italy",45.4641943,9.1896346,"Milano, Lombardia, Italia"
"Prakasam, India",15.66426435,79.47330014039173,"Prakasam, Andhra Pradesh, India"
"Prayagraj, India",25.4381302,81.8338005,"Prayagraj, Uttar Pradesh, 211001, India"
"Pretoria, South Africa",-25.7459277,28.1879101,"Pretoria, City of Tshwane Metropolitan Municipality, Gauteng, 0126, South Africa"
"Puebla, Mexico.",18.833333,-98,"Puebla, México"
"Pune, India",18.5213738,73.8545071,"Pune City, Pune, Maharashtra, India"
"Pune, India",18.5213738,73.8545071,"Pune City, Pune, Maharashtra, India"
"Pune, India",18.5213738,73.8545071,"Pune City, Pune, Maharashtra, India"
"Pune, India",18.5213738,73.8545071,"Pune City, Pune, Maharashtra, India"
"Pune, India",18.5213738,73.8545071,"Pune City, Pune, Maharashtra, India"
"Pune, India",18.5213738,73.8545071,"Pune City, Pune, Maharashtra, India"
"Pune, India",18.5213738,73.8545071,"Pune City, Pune, Maharashtra, India"
"Pune, India",18.5213738,73.8545071,"Pune City, Pune, Maharashtra, India"
"Pune, India",18.5213738,73.8545071,"Pune City, Pune, Maharashtra, India"
"Punjab, India",30.9293211,75.5004841,"Punjab, India"
"Quebec City, Canada",46.8137431,-71.2084061,"Québec, Agglomération de Québec, Capitale-Nationale, Québec, Canada"
"Quetta, Pakistan",30.1916569,67.0006542,"کوئٹہ, Station road Quetta, Brahimzai, Satellite Town سیٹلائٹ ٹاؤن, تحصیل کوئٹہ شہر, ضلع کوئٹہ, کوئٹہ ڈویژن, بلوچستان, 97300, پاکستان"
"Quetta, Pakistan",30.1916569,67.0006542,"کوئٹہ, Station road Quetta, Brahimzai, Satellite Town سیٹلائٹ ٹاؤن, تحصیل کوئٹہ شہر, ضلع کوئٹہ, کوئٹہ ڈویژن, بلوچستان, 97300, پاکستان"
"Rabaul, Papua New Guinea",-4.1984592,152.1728287,"Rabaul, East New Britain, Islands Region, Papua Niugini"
"RaeBareli, India",26.20867685,81.21862977045768,"Raebareli, Uttar Pradesh, India"
Raipur,21.2380912,81.6336993,"Raipur, Raipur Tahsil, Raipur, Chhattisgarh, 493332, India"
Rajasthan,26.8105777,73.7684549,"Rajasthan, India"
"Rajkot, Gujarat",22.3053263,70.8028377,"Rajkot, Rajkot East Taluka, Rajkot, Gujarat, 360001, India"
"Raleigh, North Carolina",35.7803977,-78.6390989,"Raleigh, Wake County, North Carolina, United States"
"Ranchi, India",23.3700501,85.3250387,"Ranchi, Kanke, Ranchi, Jharkhand, 834001, India"
"Rangamati, Bangladesh",22.6509208,92.1814332,"রাঙ্গামাটি, রাঙ্গামাটি সদর উপজেলা, রাঙ্গামাটি পার্বত্য জেলা, চট্টগ্রাম বিভাগ, 0351, বাংলাদেশ"
Rangareddy,16.9344152,77.7788338,"Rangareddy Palle, Gandeed mandal, Mahabubnagar, Telangana, 509337, India"
"Rangpur, Bangladesh",25.6376135,89.0826381,"রংপুর বিভাগ, বাংলাদেশ"
"Recife, Brazil",-8.0584933,-34.8848193,"Recife, Região Geográfica Imediata do Recife, Região Metropolitana do Recife, Região Geográfica Intermediária do Recife, Pernambuco, Região Nordeste, Brasil"
"Rio de Janeiro, Brazil",-22.9110137,-43.2093727,"Rio de Janeiro, Região Geográfica Imediata do Rio de Janeiro, Região Metropolitana do Rio de Janeiro, Região Geográfica Intermediária do Rio de Janeiro, Rio de Janeiro, Região Sudeste, Brasil"
"Rio de Janeiro, Brazil",-22.9110137,-43.2093727,"Rio de Janeiro, Região Geográfica Imediata do Rio de Janeiro, Região Metropolitana do Rio de Janeiro, Região Geográfica Intermediária do Rio de Janeiro, Rio de Janeiro, Região Sudeste, Brasil"
"Rio de Janeiro, Brazil",-22.9110137,-43.2093727,"Rio de Janeiro, Região Geográfica Imediata do Rio de Janeiro, Região Metropolitana do Rio de Janeiro, Região Geográfica Intermediária do Rio de Janeiro, Rio de Janeiro, Região Sudeste, Brasil"
"Rio de Janeiro, Brazil",-22.9110137,-43.2093727,"Rio de Janeiro, Região Geográfica Imediata do Rio de Janeiro, Região Metropolitana do Rio de Janeiro, Região Geográfica Intermediária do Rio de Janeiro, Rio de Janeiro, Região Sudeste, Brasil"
"Rio de Janeiro, Brazil",-22.9110137,-43.2093727,"Rio de Janeiro, Região Geográfica Imediata do Rio de Janeiro, Região Metropolitana do Rio de Janeiro, Região Geográfica Intermediária do Rio de Janeiro, Rio de Janeiro, Região Sudeste, Brasil"
"Rio de Janeiro, Brazil",-22.9110137,-43.2093727,"Rio de Janeiro, Região Geográfica Imediata do Rio de Janeiro, Região Metropolitana do Rio de Janeiro, Região Geográfica Intermediária do Rio de Janeiro, Rio de Janeiro, Região Sudeste, Brasil"
"Rishikesh, Uttarakhand",30.1086537,78.2916193,"Rishikesh, Dehradun, Uttarakhand, India"
"Rockhampton, Queensland, Australia",-23.3782137,150.5134227,"Rockhampton, Rockhampton Regional, Queensland, 7200, Australia"
"Rohtas, India",24.93941425,84.01970311897313,"Rohtas, Bihar, India"
"Rumphi, Malawi",-10.79093265,33.85071177603609,"Rumphi, Northern Region, Malawi"
"Rungiri Town, Uganda",,,
"Ruvuma, Tanzania",-10.749721,35.6616934,"Ruvuma, Southern Highlands Zone, Tanzania"
"Eastern Province, Rwanda",-1.74151365,30.540428187389786,"Iburasirasuba, Rwanda"
"Rwamwanja Refugee Settlement, Uganda",0.30484555,30.68350025969131,"Rwamwanja Refugee Settlement, Mahani, Kamwenge, Western Region, Uganda"
Rwanda,-1.9646631,30.0644358,Rwanda
Rwanda,-1.9646631,30.0644358,Rwanda
Rwanda,-1.9646631,30.0644358,Rwanda
Rwanda,-1.9646631,30.0644358,Rwanda
"S√£o Gon√ßalo, Brazil",,,
"S√£o Lu√≠s, Brazil",,,
"São Paulo, Brazil",-23.5506507,-46.6333824,"São Paulo, Região Imediata de São Paulo, Região Metropolitana de São Paulo, Região Geográfica Intermediária de São Paulo, São Paulo, Região Sudeste, Brasil"
"São Paulo, Brazil",-23.5506507,-46.6333824,"São Paulo, Região Imediata de São Paulo, Região Metropolitana de São Paulo, Região Geográfica Intermediária de São Paulo, São Paulo, Região Sudeste, Brasil"
"São Paulo, Brazil",-23.5506507,-46.6333824,"São Paulo, Região Imediata de São Paulo, Região Metropolitana de São Paulo, Região Geográfica Intermediária de São Paulo, São Paulo, Região Sudeste, Brasil"
"São Paulo, Brazil",-23.5506507,-46.6333824,"São Paulo, Região Imediata de São Paulo, Região Metropolitana de São Paulo, Região Geográfica Intermediária de São Paulo, São Paulo, Região Sudeste, Brasil"
"São Paulo, Brazil",-23.5506507,-46.6333824,"São Paulo, Região Imediata de São Paulo, Região Metropolitana de São Paulo, Região Geográfica Intermediária de São Paulo, São Paulo, Região Sudeste, Brasil"
"São Paulo, Brazil",-23.5506507,-46.6333824,"São Paulo, Região Imediata de São Paulo, Região Metropolitana de São Paulo, Região Geográfica Intermediária de São Paulo, São Paulo, Região Sudeste, Brasil"
"São Paulo, Brazil",-23.5506507,-46.6333824,"São Paulo, Região Imediata de São Paulo, Região Metropolitana de São Paulo, Região Geográfica Intermediária de São Paulo, São Paulo, Região Sudeste, Brasil"
"São Paulo, Brazil",-23.5506507,-46.6333824,"São Paulo, Região Imediata de São Paulo, Região Metropolitana de São Paulo, Região Geográfica Intermediária de São Paulo, São Paulo, Região Sudeste, Brasil"
"São Paulo, Brazil",-23.5506507,-46.6333824,"São Paulo, Região Imediata de São Paulo, Região Metropolitana de São Paulo, Região Geográfica Intermediária de São Paulo, São Paulo, Região Sudeste, Brasil"
"São Paulo, Brazil",-23.5506507,-46.6333824,"São Paulo, Região Imediata de São Paulo, Região Metropolitana de São Paulo, Região Geográfica Intermediária de São Paulo, São Paulo, Região Sudeste, Brasil"
"São Paulo, Brazil",-23.5506507,-46.6333824,"São Paulo, Região Imediata de São Paulo, Região Metropolitana de São Paulo, Região Geográfica Intermediária de São Paulo, São Paulo, Região Sudeste, Brasil"
"São Paulo, Brazil",-23.5506507,-46.6333824,"São Paulo, Região Imediata de São Paulo, Região Metropolitana de São Paulo, Região Geográfica Intermediária de São Paulo, São Paulo, Região Sudeste, Brasil"
"São Paulo, Brazil",-23.5506507,-46.6333824,"São Paulo, Região Imediata de São Paulo, Região Metropolitana de São Paulo, Região Geográfica Intermediária de São Paulo, São Paulo, Região Sudeste, Brasil"
"Sabarkantha, Gujarat",23.868850549999998,73.01378404622145,"Sabarkantha, Gujarat, India"
"Sacramento, California, United States",38.5810606,-121.493895,"Sacramento, Sacramento County, California, United States"
"Sadar, India",19.849474700000002,85.87724702541016,"Sadar, Puri, Odisha, 752002, India"
"Salem, India",11.64696155,78.21069575456464,"Salem, Tamil Nadu, India"
"Salt Lake City, UT",40.7596198,-111.886797,"Salt Lake City, Salt Lake County, Utah, United States"
"Salt Lake City, UT",40.7596198,-111.886797,"Salt Lake City, Salt Lake County, Utah, United States"
San Francisco,37.7792588,-122.4193286,"San Francisco, California, United States"
"San Francisco, Cundinamarca, Colombia",4.953252,-74.26457304,"San Francisco, Gualivá, RAP (Especial) Central, 253601, Colombia"
"San Francisco, USA",37.7792588,-122.4193286,"San Francisco, California, United States"
"Sana'a Governorate, Republic of Yemen",15.260691,44.424895,"محافظة صنعاء, اليمن"
"Sanquelim, North Goa, India",15.5626483,74.0114543,"Sankhali, Bicholim, North Goa, Goa, 403505, India"
"Santo Domingo, Dominican Republic",18.4801972,-69.942111,"Santo Domingo de Guzmán, Distrito Nacional, 03201, República Dominicana"
"Scottsdale, Arizona",33.4942189,-111.926018,"Scottsdale, Maricopa County, Arizona, United States"
"Seattle, United States",47.6038321,-122.330062,"Seattle, King County, Washington, United States"
"Seattle, Washington",47.6038321,-122.330062,"Seattle, King County, Washington, United States"
Senegal,14.4750607,-14.4529612,Sénégal
"Seoul, South Korea",37.5666791,126.9782914,"서울특별시, 대한민국"
"Shanghai, China",,,
"Sharqia, Egypt",30.63327745,31.789373917991302,"الشرقية, مصر"
Siavonga,-16.536478,28.710204,"Siavonga, Siavonga District, Southern Province, Zambia"
"Siaya County, Kenya",-0.06040135,34.200135009996295,"Siaya, Nyanza, Kenya"
"Siaya, Kenya",-0.06040135,34.200135009996295,"Siaya, Nyanza, Kenya"
"Sicklerville, New Jersey",39.7173375,-74.9693329,"Sicklerville, Winslow Township, Camden County, New Jersey, United States"
Sierra Leone,8.6400349,-11.8400269,Sierra Leone
Sierra Leone,8.6400349,-11.8400269,Sierra Leone
Sierra Leone,8.6400349,-11.8400269,Sierra Leone
Tanzania,-6.5247123,35.7878438,Tanzania
Solapur,17.84990665,75.27632027348457,"Solapur, Maharashtra, India"
"Sonipat, Haryana",28.9953758,77.0233627,"Sonipat, Haryana, 131001, India"
South Africa,-28.8166236,24.991639,South Africa
"Sparta, North Carolina",36.5055712,-81.1207497,"Sparta, Alleghany County, North Carolina, 28675, United States"
St Augustine,40.7183728,-90.4109616,"St. Augustine, Knox County, Illinois, United States"
"St George's, Grenada",12.0535331,-61.751805,"St. George's, Saint George, Grenada"
"St. George's, Grenada",12.0535331,-61.751805,"St. George's, Saint George, Grenada"
"Stanford, United States",37.426540700000004,-122.1703055,"Stanford, Palo Alto, Santa Clara County, California, United States"
Staunton,38.1495947,-79.072557,"Staunton, Virginia, United States"
"Stockport, United Kingdom",53.407901,-2.160243,"Stockport, Greater Manchester, England, United Kingdom"
"Stonetown, Zanzibar",-6.2667508,39.5313473,"340 Bus Stonetown, Jambiani road, Paje, Kusini, Unguja Kusini, Zanzibar زنجبار, 72110, Tanzania"
"Stonewall, Canada",50.1342275,-97.3287254,"Stonewall, Manitoba, R0C 2Z0, Canada"
"Summerville, South Carolina",33.0186699,-80.1762704,"Summerville, Dorchester County, South Carolina, United States"
"Sunyani, Ghana",7.3384389,-2.3309226,"Sunyani, Sunyani Municipal District, Bono Region, Ghana"
"Sydney, Australia",-33.8698439,151.2082848,"Sydney, Council of the City of Sydney, New South Wales, Australia"
"Sydney, Australia",-33.8698439,151.2082848,"Sydney, Council of the City of Sydney, New South Wales, Australia"
"Tacoma, Washington, United States",47.2455013,-122.438329,"Tacoma, Pierce County, Washington, United States"
"Takoradi, Ghana",4.887401,-1.7519316,"Takoradi, Sekondi Takoradi Metropolitan District, Western Region, Ghana"
"Takoradi, Ghana",4.887401,-1.7519316,"Takoradi, Sekondi Takoradi Metropolitan District, Western Region, Ghana"
"Talandage, India",16.6210746,74.37184668118473,"Vidyamandir Talandage, Kagal MIDC To Hupari Road, Gokul Shirgaon Five Star MIDC, Ichalkaranji, Hatkanangle, Kolhapur, Maharashtra, 416415, India"
"Talcher, India",20.9322302,85.2005822,"Talcher, Angul - Talcher Road, Talcher, Colliery, Angul, Odisha, 759100, India"
Tallahassee,30.4380832,-84.2809332,"Tallahassee, Leon County, Florida, United States"
Tamale,9.4051992,-0.8423986,"Tamale, Tamale Metropolitan District, Northern Region, Ghana"
"Tamale, Ghana",9.4051992,-0.8423986,"Tamale, Tamale Metropolitan District, Northern Region, Ghana"
"Tamil Nadu, India",10.9094334,78.3665347,"Tamil Nadu, India"
"Tamil Nadu, India",10.9094334,78.3665347,"Tamil Nadu, India"
"Tana River County, Kenya",-1.53651195,39.550837405312166,"Tana River, Coast, Kenya"
Tanzania,-6.5247123,35.7878438,Tanzania
Tanzania,-6.5247123,35.7878438,Tanzania
Tanzania,-6.5247123,35.7878438,Tanzania
Tanzania,-6.5247123,35.7878438,Tanzania
Tanzania,-6.5247123,35.7878438,Tanzania
Tanzania,-6.5247123,35.7878438,Tanzania
Tanzania,-6.5247123,35.7878438,Tanzania
"Taubaté, Brazil",-23.031448,-45.5612792,"Taubaté, Região Imediata de Taubaté-Pindamonhangaba, Região Metropolitana do Vale do Paraíba e Litoral Norte, Região Geográfica Intermediária de São José dos Campos, São Paulo, Região Sudeste, Brasil"
"Taubaté, Brazil",-23.031448,-45.5612792,"Taubaté, Região Imediata de Taubaté-Pindamonhangaba, Região Metropolitana do Vale do Paraíba e Litoral Norte, Região Geográfica Intermediária de São José dos Campos, São Paulo, Região Sudeste, Brasil"
"Techiman, Bono East Region, Ghana",7.584971,-1.936401,"Techiman, Techiman Municipal District, Bono East Region, Ghana"
"Techiman, Ghana",7.584971,-1.936401,"Techiman, Techiman Municipal District, Bono East Region, Ghana"
"Tel Aviv, Israel",32.0852997,34.7818064,"תל־אביב–יפו, נפת תל אביב, מחוז תל אביב, ישראל"
"Tel Aviv, Israel",32.0852997,34.7818064,"תל־אביב–יפו, נפת תל אביב, מחוז תל אביב, ישראל"
"Tempe, Arizona",33.4255117,-111.940016,"Tempe, Maricopa County, Arizona, United States"
"Tena, Ecuador",-0.94387175,-78.10839815,"Tena, Napo, Ecuador"
"Tena, Napo, Ecuador",-0.94387175,-78.10839815,"Tena, Napo, Ecuador"
"Tenkasi District, Tamil Nadu, India",9.0933908,77.47583730587374,"Tenkasi, Tamil Nadu, India"
"Tete, Mozambique",-15.5205193,32.7682742,"Tete, Zona Centro, Moçambique"
Texas,31.2638905,-98.5456116,"Texas, United States"
"Thane, India",19.1943294,72.9701779,"Thane, Thane Taluka, Thane, Maharashtra, India"
"Thane, India",19.1943294,72.9701779,"Thane, Thane Taluka, Thane, Maharashtra, India"
"Thane, India",19.1943294,72.9701779,"Thane, Thane Taluka, Thane, Maharashtra, India"
"Thane, Maharashtra",19.1943294,72.9701779,"Thane, Thane Taluka, Thane, Maharashtra, India"
"Thika, Kenya",-1.036648,37.077523,"Thika, Thika Town, Kiambu, Central Kenya, Kenya"
"Thika, Kenya",-1.036648,37.077523,"Thika, Thika Town, Kiambu, Central Kenya, Kenya"
Thimphu,27.4713546,89.6336729,"ཐིམ་ཕུ, Chang Gewog, ཐིམ་ཕུ, ཐིམ་ཕུ་རྫོང་ཁག་, 11001, འབྲུགཡུལ་"
"Thimphu, Bhutan",27.4713546,89.6336729,"ཐིམ་ཕུ, Chang Gewog, ཐིམ་ཕུ, ཐིམ་ཕུ་རྫོང་ཁག་, 11001, འབྲུགཡུལ་"
"Thiruvananthapuram, Kerala",8.4882267,76.947551,"Thiruvananthapuram, Kerala, 695001, India"
"Tokyo, Japan",35.6768601,139.7638947,"東京都, 日本"
"Toronto, Canada",43.6534817,-79.3839347,"Toronto, Golden Horseshoe, Ontario, Canada"
"Toronto, Canada",43.6534817,-79.3839347,"Toronto, Golden Horseshoe, Ontario, Canada"
"Rio de Janeiro, Brazil",-22.9110137,-43.2093727,"Rio de Janeiro, Região Geográfica Imediata do Rio de Janeiro, Região Metropolitana do Rio de Janeiro, Região Geográfica Intermediária do Rio de Janeiro, Rio de Janeiro, Região Sudeste, Brasil"
"Tulln, Austria",48.3311702,16.05179,"Tulln an der Donau, Bezirk Tulln, Niederösterreich, 3430, Österreich"
Tunis,36.8002068,10.1857757,"تونس, ولاية تونس, تونس"
"Tupaciguara, Minas Gerais, Brazil",-18.5932122,-48.6999014,"Tupaciguara, Região Geográfica Imediata de Uberlândia, Região Geográfica Intermediária de Uberlândia, Minas Gerais, Região Sudeste, 38480-000, Brasil"
"Uberlândia, Brazil",-18.9188041,-48.2767837,"Uberlândia, Região Geográfica Imediata de Uberlândia, Região Geográfica Intermediária de Uberlândia, Minas Gerais, Região Sudeste, Brasil"
"Uberlândia, Brazil",-18.9188041,-48.2767837,"Uberlândia, Região Geográfica Imediata de Uberlândia, Região Geográfica Intermediária de Uberlândia, Minas Gerais, Região Sudeste, Brasil"
"Udaipur, India",24.578721,73.6862571,"Udaipur, Girwa Tehsil, Udaipur, Rajasthan, 313001, India"
Uganda,1.5333554,32.2166578,Uganda
Uganda,1.5333554,32.2166578,Uganda
Uganda,1.5333554,32.2166578,Uganda
Uganda,1.5333554,32.2166578,Uganda
"Ujjain, Madhya Pradesh",23.1885131,75.7716562,"Ujjain, Ujjain NagarTahsil, Ujjain, Madhya Pradesh, 456001, India"
United States of America,39.7837304,-100.445882,United States
United States of America,39.7837304,-100.445882,United States
United States of America,39.7837304,-100.445882,United States
United States of America,39.7837304,-100.445882,United States
United States of America,39.7837304,-100.445882,United States
United States of America,39.7837304,-100.445882,United States
United States of America,39.7837304,-100.445882,United States
United States of America,39.7837304,-100.445882,United States
United States of America,39.7837304,-100.445882,United States
United States of America,39.7837304,-100.445882,United States
"Upper West, Ghana",10.3669525,-2.0921426,"Upper West Region, Ghana"
"Uttar Pradesh, India",27.1303344,80.859666,"Uttar Pradesh, India"
"Uttar Pradesh, India",27.1303344,80.859666,"Uttar Pradesh, India"
"Uttar Pradesh, India",27.1303344,80.859666,"Uttar Pradesh, India"
"Uttarakhand, India",30.0417376,79.089691,"Uttarakhand, India"
"Uttarakhand, India",30.0417376,79.089691,"Uttarakhand, India"
"Uttarakhand, India",30.0417376,79.089691,"Uttarakhand, India"
"Uttarakhand, India",30.0417376,79.089691,"Uttarakhand, India"
"Uttar Pradesh, India",27.1303344,80.859666,"Uttar Pradesh, India"
"Uvira, DRC",-3.4055866,29.1375509,"Uvira, Bavira (chefferie), Uvira, Sud-Kivu, République démocratique du Congo"
Uzbekistan,41.32373,63.9528098,Oʻzbekiston
"Vadodara, Gujarat (IN)",22.2973142,73.1942567,"Vadodara, Vadodara Rural Taluka, Vadodara, Gujarat, 390001, India"
"Vadodara, India",22.2973142,73.1942567,"Vadodara, Vadodara Rural Taluka, Vadodara, Gujarat, 390001, India"
"Vadodara, India",22.2973142,73.1942567,"Vadodara, Vadodara Rural Taluka, Vadodara, Gujarat, 390001, India"
"Valsad, India",20.43219565,73.14098929730321,"Valsad, Gujarat, India"
Vancouver,49.2608724,-123.113952,"Vancouver, Metro Vancouver Regional District, British Columbia, Canada"
"Varanasi, Uttar Pradesh",25.3356491,83.0076292,"Varanasi, Sadar, Varanasi, Uttar Pradesh, 221001, India"
"Vedi, Armenia",39.9138481,44.7224953,"Վեդի, Վեդի համայնք, Արարատի մարզ, 0601, Հայաստան"
"Venn Innovation, Moncton NB",,,
"Vienna, Austria",48.2083537,16.3725042,"Wien, Österreich"
"Vienna, Austria",48.2083537,16.3725042,"Wien, Österreich"
"Viet Tri, Vietnam",21.3136067,105.3946301,"Thành phố Việt Trì, Tỉnh Phú Thọ, Việt Nam"
"Vito, Bolivia",-18.0160913,-67.1393502,"Vito, Oruro, Municipio Oruro, Provincia Cercado, Oruro, Bolivia"
"Vlotho, Germany",52.1664861,8.8619172,"Vlotho, Kreis Herford, Nordrhein-Westfalen, 32602, Deutschland"
"Voels, Austria",47.2523245,11.3279408,"Völs, Bezirk Innsbruck-Land, Tirol, 6176, Österreich"
"Vorniceni, Republic of Moldova",47.1543982,28.427932,"Vorniceni, Raionul Strășeni, MD-3737, Moldova"
South Africa,-28.8166236,24.991639,South Africa
"Wa, Ghana",10.0623261,-2.5054273,"Wa, Wa Municipal District, Upper West Region, Ghana"
Wakiso,0.3760928,32.456126539081936,"Wakiso, Central Region, Uganda"
"Wakiso, Uganda",0.3760928,32.456126539081936,"Wakiso, Central Region, Uganda"
"Wanaka, New Zealand",-44.6941691,169.1364637,"Wānaka, Queenstown-Lakes District, Otago, 9305, New Zealand / Aotearoa"
"Warri, Nigeria",5.5186186,5.7480196,"Warri, Delta, Nigeria"
"Washington D.C., USA",38.8950368,-77.0365427,"Washington, District of Columbia, United States"
"Washington, DC",38.8950368,-77.0365427,"Washington, District of Columbia, United States"
"Washington, USA",38.8950368,-77.0365427,"Washington, District of Columbia, United States"
"West Bengal, India",22.9964948,87.6855882,"West Bengal, India"
"West Bengal, India",22.9964948,87.6855882,"West Bengal, India"
"West Bengal, India",22.9964948,87.6855882,"West Bengal, India"
West Delhi,28.6545456,77.08105551,"West Delhi, Delhi, India"
"White River, South Africa",-25.326389,31.014444,"White River, Mbombela, Ehlanzeni, Mpumalanga, 1240, South Africa"
"Wilmington City, Delaware, United States",39.7478926,-75.54941333,"City Center Wilmington Parking, 208, West 12th Street, Midtown Brandywine, Wilmington, New Castle County, Delaware, 19801, United States"
Woodbridge,52.0941323,1.3199383,"Woodbridge, East Suffolk, Suffolk, England, United Kingdom"
Yaba,12.811960299999999,-2.884813151,"Yaba, Nayala, Boucle du Mouhoun, Burkina Faso"
"Yadgiri, India",16.7670964,77.1403984,"Yadgiri, Yadagiri taluku, Yadgir, Karnataka, 585200, India"
"Yamunanagar, India",30.1231349,77.286329,"Yamunanagar, Jagadhri, Yamunanagar, Haryana, 135001, India"
"Yaounde, Cameroon",3.8689867,11.5213344,"Communauté urbaine de Yaoundé, Mfoundi, Centre, Cameroun"
"Yaounde, Cameroon",3.8689867,11.5213344,"Communauté urbaine de Yaoundé, Mfoundi, Centre, Cameroun"
"Yaounde, Cameroon",3.8689867,11.5213344,"Communauté urbaine de Yaoundé, Mfoundi, Centre, Cameroun"
Yenagoa,4.9334651,6.2747786,"Yenegoa, Bayelsa, 569101, Nigeria"
"Yenagoa, Bayelsa State, Nigeria",4.9334651,6.2747786,"Yenegoa, Bayelsa, 569101, Nigeria"
"Yeruham, Israel",30.9888033,34.9250975,"ירוחם, נפת באר שבע, מחוז הדרום, ישראל"
"Zabalj, Serbia",45.3728199,20.0637917,"Жабаљ, Општина Жабаљ, Јужнобачки управни округ, Војводина, 21230, Србија"
Zambia,-14.5189121,27.5589884,Zambia
"Zanzibar, Tanzania",-6.1664908,39.2074312,"Zanzibar City مدينة زنجبار, Mjini, Unguja Mjini Magharibi, Zanzibar زنجبار, 71109, Tanzania"
"Zaria, Kaduna State, Nigeria",11.0248119,7.651853311586596,"Zaria, Kaduna, Nigeria"
"Zaria, Nigeria",11.0248119,7.651853311586596,"Zaria, Kaduna, Nigeria"
"Caucaia, Brazil",-3.7300563,-38.6593082,"Caucaia, Região Geográfica Imediata de Fortaleza, Região Geográfica Intermediária de Fortaleza, Ceará, Região Nordeste, Brasil"
"Thane, India",19.1943294,72.9701779,"Thane, Thane Taluka, Thane, Maharashtra, India"
"Cabo Delgado, Mozambique",-12.4254942,39.4168743,"Cabo Delgado, Zona Norte, Moçambique"
"Concepción, Chile",-36.8270698,-73.0502064,"Concepción, Provincia de Concepción, Región del Biobío, Chile"
Democratic Republic of Congo,-15.4139213,28.289698,"Embassy of the Democratic Republic Of Congo, Parirenyetwa Road, Fairview, Lusaka, Lusaka District, Lusaka Province, Zambia"
"Momposina, Colombia",9.210430522279227,-74.40222038,"Transversal Momposina, Santa Cruz de Mompox, Isla de Mompós, Bolívar, RAP Caribe, 132560, Colombia"
"Igabi, Nigeria",10.7490822,7.528949832280797,"Igabi, Kaduna, Nigeria"
"Itatira, Brasil",-4.5305504,-39.6210481,"Itatira, Região Geográfica Imediata de Canindé, Região Geográfica Intermediária de Fortaleza, Ceará, Região Nordeste, 62720-000, Brasil"
"Kinshasa, Congo",-4.3196982,15.3424196,"Kinshasa, République démocratique du Congo"
Kinzaiga-Rutana,,,
"Lausanne, Switzerland",46.5218269,6.6327025,"Lausanne, District de Lausanne, Vaud, Schweiz/Suisse/Svizzera/Svizra"
"Douala, Cameroon",4.0429389,9.7062018,"Douala, Douala II, Communauté urbaine de Douala, Wouri, Littoral, Cameroun"
"Nakuru, Kenya",-0.2802724,36.0712048,"Nakuru, Nakuru West, Nakuru, Rift Valley, 20100, Kenya"
Tanzania,-6.5247123,35.7878438,Tanzania
Namibia,-23.2335499,17.3231107,Namibia
Jordan,44.6663146,-93.6261918,"Jordan, Scott County, Minnesota, United States"
"Maharashtra, India",18.9068356,75.6741579,"Maharashtra, India"
Israel,30.8124247,34.8594762,ישראל
Uganda,1.5333554,32.2166578,Uganda
"São Gonçalo, Brazil",-22.821635,-42.99567969,"São Gonçalo, Região Geográfica Imediata do Rio de Janeiro, Região Metropolitana do Rio de Janeiro, Região Geográfica Intermediária do Rio de Janeiro, Rio de Janeiro, Região Sudeste, Brasil"
"São Luís, Brazil",-2.5295265,-44.2963942,"São Luís, Região Geográfica Imediata de São Luís, Região Geográfica Intermediária de São Luís, Maranhão, Região Nordeste, Brasil"
"Shanghai, China",31.2312707,121.4700152,"上海市, 中国"